"id","name","address","phone","email","website","district_id","created_at","updated_at","created_by","updated_by","nu_state_id","lat","long"
59,PCNU Kabupaten Bogor,"Jl. Bina Citra / Kec. Cipayung No.5, Tengah, Cibinong, Bogor, Jawa Barat 16914","",kabbogorpcnu@gmail.com,www.pcnubogor.com,3201,"2020-01-16 04:59:28","2021-06-17 07:35:52",,2,32,-6.4758075,"106.8294776"
60,PCNU Kabupaten Sukabumi,"Jl. Raya Kadupugur, Cijalingan, Kec. Cicantayan, Kab. Sukabumi Jawa Barat 43155","085793677053",kontak@pcnukabsukabumi.or.id,https://www.pcnukabsukabumi.or.id,3202,"2020-01-16 04:59:28","2020-05-21 06:42:18",,5,32,-6.903533,"106.8531383"
61,PCNU Kabupaten Cianjur,"Jl. Perintis Kemerdekaan, no.99, Desa. Sirnagalih, Kec. Cilaku, Kabupaten Cianjur, Prov. Jawa Barat 43285","085720000285",nahdlatululamacianjur@gmail.com,-,3203,"2020-01-16 04:59:28","2021-07-09 06:07:41",,7,32,-6.847192,"107.1346254"
62,PCNU Kabupaten Bandung,Jl. Laswi No. 516 Jongor Desa Serangmekar Kecamatan Ciparay Kabupaten Bandung,"",nu.kabbandung@gmail.com,pcnukabbandung.org,3204,"2020-01-16 04:59:28","2021-06-16 08:13:19",,18,32,-7.0311525,"107.6896417"
64,PCNU Kabupaten Tasikmalaya,Jalan Raya Timur No 505 Badakpaeh Singaparna Tasikmalaya Jawa barat,"08122995018",nukabtas@gmail.com,https://medianu.or.id/,3206,"2020-01-16 04:59:28","2021-09-06 19:35:59",,24,32,-7.345390,"108.132690"
65,PCNU Kabupaten Ciamis,Jalan Raya Ciamis-Banjar No. 27 KM. 3 Ciamis 46271,"0265776009",pcnuciamis27@gmail.com,https://www.nuciamis.or.id,3207,"2020-01-16 04:59:28","2021-09-13 14:23:44",,26,32,-7.3255931,"108.3772519"
68,PCNU Kabupaten Majalengka,Jl Pangeran Muhammad No 15 Cikalong Sukahaji Majalengka 45471 ,"0233291157",pcnumajalengka@gmail.com,https://numajalengka.or.id/,3210,"2020-01-16 04:59:28","2021-08-25 01:48:56",,11,32,-6.816337023110511,"108.28414751002423"
69,PCNU Kabupaten Sumedang,"jl. Kutamaya no. 25, Kotakulon, Kecamatan Sumedang Selatan, Kabupaten Sumedang, Jawa barat, 45311","082119722748",pcnusumedang2020,nusumedang.id,3211,"2020-01-16 04:59:28","2021-08-27 09:16:21",,22,32,-6.8505916,"107.9139436"
72,PCNU Kabupaten Purwakarta,Jl. Ibrahim Singadilaga No. 23 Rt. 006/001 Kel. Nagrikaler Kec. Purwakarta Kab. Purwakarta,"08170961130",pcnupurwakarta21@gmail.com,https://www.nupurwakarta.com/,3214,"2020-01-16 04:59:29","2021-09-20 16:09:10",,16,32,"",""
73,PCNU Kabupaten Karawang,Jl.Dewi Sartika No 43 Kel.Nagasari Kec. Karawang Barat Kab.Karawang,"0267406699",pcnukarawangds43@gmail.com,nukarawang.or.id,3215,"2020-01-16 04:59:29","2021-08-11 10:57:29",,15,32,"6.3081068","107.2993483"
74,PCNU Kabupaten Bekasi,"Jl. KH. Mas'ud No.164, Tridaya Sakti, Kec. Tambun Selatan, Kabupaten Bekasi, Jawa Barat 17510","",sekretariatpcnukabbekasi@gmail.com,"",3216,"2020-01-16 04:59:29","2021-09-01 14:29:52",,14,32,-6.255725572352249,"107.07510787852226"
75,PCNU Kabupaten Bandung Barat,Jln. GA Manulang Kec. Padalarang Kab. Bandung Barat,"",pcnukbb@gmail.com,"",3217,"2020-01-16 04:59:29","2020-06-17 13:42:53",,20,32,-6.852307, 107.476184
76,PCNU Kabupaten Pangandaran,"Jl. Raya Cijulang, Cibenda, Kec. Parigi, Kab. Pangandaran, Jawa Barat 46393","081328167887",pcnupangandaran20@gmail.com,"",3218,"2020-01-16 04:59:29","2023-06-15 13:49:35",,30,32,-7.677778565379254,"108.56332282883601"
77,PCNU Kota Bogor,"Jl. Sempur Kaler Rt. 05 Rw 01 No.7 Kelurahan Sempur, Tengah, RT.05/RW.01, Sempur, Kecamatan Bogor Tengah, Kota Bogor, Jawa Barat 16129","081272861959",pcnubogota@gmail.com,pcnukotabogor.id,3271,"2020-01-16 04:59:29","2021-06-19 03:46:52",,3,32,-6.5882703,"106.7983824"
78,PCNU Kota Sukabumi,"Jl. RA. Kosasih No. 46/47 RT 02/01 Kel. Babakan Kec. Cibeureum, Kota Sukabumi 43195","","","",3272,"2020-01-16 04:59:29","2020-02-07 11:09:01",,1,32,"",""
79,PCNU Kota Bandung,"Jalan Sancang No.8, Kelurahan Burangrang, Kec. Lengkong","0227321806",sekretariatnukotabandung@gmail.com,http://www.nukotabandung.or.id/,3273,"2020-01-16 04:59:29","2020-07-08 02:28:29",,19,32,"6Â°55'50.9","107.619151"
80,PCNU Kota Cirebon,"Jl. Garuda (Aryakemuning) No.01, Kel. Pekiringan, Kec. Kesambi, Kota Cirebon, Jawa Barat 45161","","","",3274,"2020-05-21 06:45:01","2021-08-20 03:48:09",1,9,32,-6.719087,"108.5535291"
81,PCNU Kota Bekasi,"Jl. Bambu Kuning No. 200, Sepanjang Jaya, Rawalumbu, Kota Bekasi","",pcnukotabekasi@gmail.com,https://www.nubekasi.id/,3275,"2020-01-16 04:59:29","2021-06-19 04:17:16",,13,32,-6.265043886264638,"106.99843206426691"
82,PCNU Kota Depok,Jl. Raya Kalimulya No. 5B ( Belakang SMPIT As-Shof ) Kalimulya Cilodong Depok ,"0811902193",pcnukotadepok@gmail.com/pcnu_depok@yahoo.co.id,NUDEPOK.COM,3276,"2020-01-16 04:59:29","2021-06-24 12:30:46",,4,32,-6.442411,"106.823141"
83,PCNU Kota Cimahi,Jl. Raya Cilember Blk. 283 No. 27 RT. 01 RW. 06 Kelurahan Cigugur Tengah Kecamatan Cimahi Tengah Kota Cimahi,"081320799551",pcnu.kotacimahi@gmail.com,"",3277,"2020-01-16 04:59:29","2021-06-16 07:41:25",,21,32,"-6.8922138,","107.5575156"
84,PCNU Kota Tasikmalaya,"Jl. DR. Sukarjo No. 47, Kota Tasikmalaya 46112","0265326805",pcnukotatsk@gmail.com,https://nu-kotatasikmalaya.id/,3278,"2020-01-16 04:59:29","2023-06-15 13:53:09",,30,32,-7.323617768813682,"108.22126124815536"
85,PCNU Kota Banjar,"Jalan Banjar-Langensari, Dusun Rancakole, Desa Mulyasari, Kecamatan Pataruman Kota Banjar, Jawa Barat 46325","085314427782",pcnukotabanjar1926@gmail.com,"",3279,"2020-01-16 04:59:29","2021-06-16 08:11:54",,27,32,-7.3698691,"108.5780266"
86,PCNU Kabupaten Cirebon,"Jalan Raden Dewi Sartika No. 9, Kelurahan Sumber Kecamatan Sumber Kabupaten Cirebon","081223801409",data.nukabcirebon@gmail.com,www.nucirebon.or.id,3209,"2020-05-21 06:45:01","2021-06-24 13:59:42",8,8,32,-6.7591128,"108.478389"
88,PCNU Kabupaten Subang,"Jln. Darmodiharjo No. 4, Sukamelang, Subang, Jawa Barat 41251","085759322377",pcnu.soebang@gmail.com,https://nusubang.or.id/,3213,"2020-05-21 06:48:00","2020-05-21 06:50:40",17,17,32,-6.550299,"107.7665635"
89,PCNU Kabupaten Garut,Jl. Suherman No. 117 Pancalikan  Desa. Jati  Kecamatan. Tarogong Kaler Kabupaten. Garut 44151 Provinsi. Jawa Barat,"02622801126",sekretariatpcnugarut@gmail.com,https://www.pcnugarut.or.id/,3205,"2021-08-03 00:00:00","2021-09-16 15:55:08",,23,32,-7.1899474,"107.901937"
92,PCNU Kabupaten Kuningan,Jl. Bhakti Pemuda No. 77B Lingkungan Buana Kelurahan Cijoho Kabupaten Kuningan Jawa Barat ,"02328911011",pcnukuningan26@gmail.com,pcnukuningan.or.id,3208,"2020-05-21 06:58:12","2020-05-21 06:59:54",10,10,32,-6.9729351,"108.4909371"
97,PCNU Kab. Indramayu,Jl. Gatot Subroto No.9 Indramayu,"02347125558",pcnuindramayu26@gmail.com,"",3212,"2020-05-21 13:37:51","2021-10-12 04:11:56",1,12,32,-6.341827,"108.336471"
