"id","name","address","phone","email","website","sub_district_id","nu_district_id","created_by","updated_by","created_at","updated_at","lat","long"
1,MWC NU Singaparna,Jln Raya Gedung Bupati Desa Sukaasih Kec. Singaparna,"082337300566",mwcnusingaparna@gmail.com,https://medianu.or.id/,3206190,64,1,24,"2020-01-13 20:38:07","2021-09-16 08:35:12","",""
2,MWC NU Tanjungjaya,KP. Warungbandung Desa. Cibalanarik Kec. Tanjungjaya,"087777103301",mwcnutanjungjaya21@gmail.com,https://medianu.or.id/,3206120,64,24,24,"2020-05-21 03:47:16","2021-09-16 08:36:32","",""
4,MWC NU Cimahi Selatan,Jl. Mukodar No. 7 RT. 01 RW. 08 Kelurahan Cibeureum Kecamatan Cimahi Selatan Kota Cimahi,"0818626392",mwcnucimahiselatan@gmail.com,"",3277010,83,21,21,"2020-05-21 08:22:50","2020-06-22 15:07:14",-6.9110661,"107.562896"
5,MWC NU Cimahi Tengah,"","","","",3277020,83,21,,"2020-05-21 08:23:47","2020-05-21 08:23:47","",""
6,MWC NU Cimahi Utara,"","","","",3277030,83,21,,"2020-05-21 08:31:20","2020-05-21 08:31:20","",""
7,MWC NU CIAMIS,Jalan KH. Wahid Hasyim No. 9 Ciamis 46211,"085223268819","","",3207210,65,26,26,"2020-05-21 11:43:30","2020-06-11 10:06:52",-7.325370,"108.3562196"
8,MWC NU CIKONENG,Jalan Kujang No. 345 Desa Kujang Kecamatan Cikoneng Kabupaten Ciamis 46261,"085221526130","","",3207220,65,26,26,"2020-05-21 11:46:26","2020-06-18 13:32:54",-7.3082827,"108.2705468"
9,MWC NU CIJEUNGJING,"Jln. Bojongsari Gg. Masjid, Desa Dewasari, Kec. Cijeungjing 46271","085323620029","","",3207150,65,26,26,"2020-05-21 11:48:14","2020-06-14 02:09:03",-7.327322,"108.375770"
11,MWC NU BAREGBEG,Jalan R. E. Martadinata KM. 4 Dusun Desa RT/RW 007/002 Desa Baregbeg Kec. Baregbeg Kab. Ciamis 46274,"085224408668","","",3207211,65,26,26,"2020-05-21 11:50:45","2020-06-16 13:50:24",--7.3026134,"108.3635622"
12,MWC NU SADANANYA,"Pondok Pesantren Al Huda,  Dusun Tonggoh RT/RW 002/001 Desa/Kecamatan Sadananya Kabupaten Ciamis","085223348500","","",3207240,65,26,26,"2020-05-21 11:52:02","2020-06-17 10:02:44","",""
13,MWC NU CIPAKU,Jl. Raya Kawali Dusun Kampung Kota Rt.013 Rw. 005 Desa Buniseuri Kecamatan Cipaku Kabupaten Ciamis 46252,"081221549692",mwcnucipaku@gmail.com,"",3207250,65,26,26,"2020-05-21 11:52:40","2020-06-16 10:36:41","",""
14,MWC NU CIMARAGAS,Jalan Banjar-Manonajaya Dsn. Pasirnangka Ds. Beber Kec. Cimaragas Kab. Ciamis,"6282295194348","","",3207140,65,26,26,"2020-05-21 11:54:04","2020-06-16 12:39:13",-7.3662577,"108.4320198"
15,MWC NU CIDOLOG,Dusun Bunirasa RT 04 RW 01 Desa Cidolog Kec. Cidolog Kab. Ciamis 46352 (Gedung Dakwah Islam Kec. Cidolog),"085223972513","","",3207130,65,26,26,"2020-05-21 11:54:40","2020-06-15 12:17:38","",""
16,MWC NU PAMARICAN,"Dusun Cisaar RT/RW 003/001, Desa Kertahayu, Kec. Pamarican, Kab. Ciamis","085292284493",mwcnu24pamarican@gmail.com,https://medianupamarican.com,3207120,65,26,26,"2020-05-21 11:56:27","2020-06-12 01:01:29",-7.4585739,"108.5596401"
17,MWC NU CISAGA,Pesantren Nurul Huda Dusun Cipurut Desa Cisaga Kec. Cisaga Kab. Ciamis 46386,"081323337901","","",3207160,65,26,26,"2020-05-21 11:57:13","2020-06-16 14:25:58","",""
18,MWC NU RANCAH,Pondok Pesantren Salafiyah Rijalul Ansor Dsn. Sukacai RT/RW 001/009 Desa Rancah Kecamatan Rancah Kabupaten Ciamis,"082311064149",mwcnurancah@gmail.com,"",3207180,65,26,26,"2020-05-21 11:58:13","2020-06-17 09:43:07","",""
19,MWC NU TAMBAKSARI,Dusun Samarang RT/RW 007/006 Desa Mekarsari Kec. Tambaksari Kab. Ciamis 46388,"628112113133","","",3207170,65,26,26,"2020-05-21 12:00:25","2020-06-16 13:48:07","",""
20,MWC NU BANJARSARI,Dusun Kubangpari RT 008 RW 005 Desa Ciherang Kec. Banjarsari Kab. Ciamis,"085317639459","","",3207100,65,26,26,"2020-05-21 12:01:26","2020-06-16 16:08:11","",""
21,MWC NU LAKBOK,Dusun Baregbeg RT/RW 020/005 Desa Baregbeg Kecamatan Lakbok Kabupaten Ciamis,"085220108654",mwcnulakbok01@gmail.com,"",3207110,65,26,26,"2020-05-21 12:10:05","2020-06-18 00:55:04","",""
22,MWC NU PURWADADI,"Jalan Panineungan Dusun Tangkeban RT/RW 035/007 Desa Purwadadi Kecamatan Purwadadi Kabupaten Ciamis 46286
  ","082317469289",mwcnupurwadadi26@gmail.com,"",3207111,65,26,26,"2020-05-21 12:12:05","2020-06-17 09:39:08","",""
23,MWC NU SUKADANA,Pasar Dongkal Dusun Desa RT/RW 005/001Desa Margaharja Kec. Sukadana Kab. Ciamis,"085220678035","","",3207200,65,26,26,"2020-05-21 12:21:44","2020-06-16 12:29:44",-7.2603087,"108.4453548"
24,MWC NU RAJADESA,Pondok Pesantren Salafiyah Manhajul Ulum Nusa Dusun Cigoong RT.02/RW 01 Desa Sirnabaya Kec. Rajadesa Kab. Ciamis,"085223435589","","",3207190,65,26,26,"2020-05-21 12:22:25","2020-06-17 10:25:47",-7.1799418,"108.4315"
25,MWC NU KAWALI,Jalan Raya Kawali-Panjalu No. 123 Desa Margamulya Kec. Kawali Kab. Ciamis,"08122221075","","",3207280,65,26,26,"2020-05-21 12:24:43","2020-06-14 01:43:18",-7.169111,"108.349390"
26,MWC NU JATINAGARA,Dusun Wetan No. 03 RT/RW 019/005 Desa Jatinagara Kec. Jatinagara Kab. Ciamis 46273,"085224586279",mwcnu.jatinagara@gmail.com,"",3207260,65,26,26,"2020-05-21 12:25:15","2020-06-11 12:47:56",-7.171939,"108.421557"
28,MWC NU BANJARANYAR,"Dusun Kaligamping, Desa Kalijaya, Kecamatan Banjaranyar, Kabupaten Ciamis","6281395406691","","",3279041,65,26,26,"2020-06-03 09:41:27","2020-06-23 10:47:51","",""
30,MWC NU PANUMBANGAN,"","","","",3207300,65,26,26,"2020-06-05 14:49:06","2020-06-14 13:36:31","",""
31,MWC NU PANAWANGAN,"","081312703838","","",3207270,65,26,26,"2020-06-05 14:49:08","2020-06-14 13:47:33","",""
33,MWC NU PANJALU,Jalan Pasanggrahan No. 245 Panjalu Kab. Ciamis 46264,"081320767730","","",3207290,65,26,26,"2020-06-05 14:52:19","2020-06-14 03:32:48",-7.133769,"108.269626"
34,MWC NU SUKAMANTRI,Pondok Pesantren Nurul Iman RT/RW 001/004 No. 11 Desa Sukamantri Kecamatan sukamantri Kabupaten Ciamis,"6281222997800","","",3207291,65,26,26,"2020-06-05 14:54:21","2020-06-17 09:50:06","",""
36,MWC NU CIHAURBEUTI,"SMK Ma'arif NU Cihaurbeuti, Jalan Cihaurbeuti No. 114 Desa Sukahaji Kec. Cihaurbeuti Kab. Ciamis 46262","082120789558","","",3207230,65,26,26,"2020-06-05 14:56:35","2020-06-15 12:33:01",-7.2638832,"108.1958709"
37,MWC NU LUMBUNG,Dusun Rawa RT/RW 001/002 Desa Rawa Kecamatan Lumbung Kabupaten Ciamis,"082120929020","","",3207281,65,26,26,"2020-06-05 14:58:11","2020-06-17 00:36:41","",""
38,MWCNU KECAMATAN CIGUGUR,"","","","",3218030,76,28,,"2020-06-05 15:33:02","2020-06-05 15:33:02","",""
40,MWCNU TANJUNGSARI,Jl. Nusa Indah No. 7 Situ RT. 03 RW. 02 Tanjungsari Sumedang 45362,"085361388399",mwcnutanjungsari99@gmail.com,"",3211030,69,22,22,"2020-06-07 16:12:58","2020-06-07 16:49:06",-6.7138982,"106.9336164"
41,MWCNU GANEAS,Jln. Rd. Umar Wirahadikusumah Km.01 Ganeas   45356 SUMEDANG,"081220336811","","",3211061,69,22,22,"2020-06-07 16:22:04","2020-06-17 01:49:29","-6.8717418,107","107.9546621"
42,MWC NU SINDANGKASIH,Dusun Margasari RT/RW 004/004 Desa Wanasigra Kec. Sindangkasih Kab. Ciamis 46268,"085223666748","","",3207221,65,26,26,"2020-06-08 10:37:46","2020-06-16 13:57:42",-7.3141357,"108.2625768"
43,MWCNU CICENDO,Citepus ll Rt 07/06 No 4 kel Pajajaran Kec Cicendo Kota Bandung,"085723820899",kbpermatahati004@gmail.com,"",3273190,79,19,19,"2020-06-09 12:52:57","2020-06-10 09:57:28","",""
44,MWCNU SUMUR BANDUNG,Jl.Lombok Blk No 6 Kel Merdeka,"081337462169",jadilebe2001@gmail.com,"",3273170,79,19,,"2020-06-11 05:20:54","2020-06-11 05:20:54","",""
45,MWCNU BANDUNG KULON,Alamat: Cigondewah Rahayu Rt.03 /Rw.04,"0817425177","","",3273010,79,19,19,"2020-06-12 13:14:26","2020-06-18 14:13:34","",""
46,MWCNU BABAKAN CIPARAY,Alamat Sekretariat. : Majelis Attaqwa  Jln/Gang.Pagarsih Barat IV.Rt.04 Rw.07.Situ Aksan Kel.Sukahaji Kec.Bacip kota Bandung. 40221.,"08122019974",mwcnubacip17@gmail.com,"",3273020,79,19,19,"2020-06-12 13:21:08","2020-06-13 13:49:42","",""
47,MWCNU ANDIR,"","081220151260","","",3273180,79,19,19,"2020-06-12 13:21:59","2020-06-18 14:17:59","",""
48,MWCNU SUKASARI,Jl Cijero kaso no 82 Rt 007/001 kel sarijadi kec sukasari Kota Bandung,"081322846232",mwc.nu.sukasari@gmail.com,"",3273250,79,19,19,"2020-06-12 13:23:10","2020-06-18 14:20:19","",""
49,MWCNU SUKAJADI,"Sukajadi No. 140
Bandung 40161","082120202471","","",3273240,79,19,19,"2020-06-12 13:24:03","2020-06-18 14:19:06","",""
50,MWCNU REGOL,"","082127126998","","",3273060,79,19,19,"2020-06-12 13:24:59","2020-06-18 14:21:24","",""
51,MWCNU KIARACONDONG,"","085220410827","","",3273150,79,19,19,"2020-06-12 13:25:46","2020-06-18 14:22:12","",""
52,MWCNU BATUNUNGGAL,Jl Binong Jati II No 118 RT 05/06 Kel Binong Kec Batununggal Bandung,"081322360933","","",3273160,79,19,19,"2020-06-12 13:26:25","2020-06-27 09:02:54","",""
53,MWCNU LENGKONG,"","82200062988","","",3273070,79,19,19,"2020-06-12 13:27:00","2020-06-18 14:23:43","",""
54,MWCNU ASTANAANYAR,"Jl, bapak suhaya no 15 Rt 07/06 Kel yengseret Kec Astana anyar Bandung","08122382770",cholid.wachyudin@gmail.com,"",3273050,79,19,19,"2020-06-12 13:27:48","2020-09-25 13:46:23","",""
55,MWCNU ANTAPANI,"","08139487640","","",3273141,79,19,19,"2020-06-12 13:28:33","2020-06-18 14:25:30","",""
56,MWCNU CIBEUNYING KALER,"","081395195958","","",3273220,79,19,19,"2020-06-12 13:29:18","2020-06-18 14:26:16","",""
57,MWCNU CIBEUNYING KIDUL,"","082262644500","","",3273210,79,19,19,"2020-06-12 13:29:53","2020-06-18 14:27:14","",""
58,MWCNU COBLONG,"","81321702164","","",3273230,79,19,19,"2020-06-12 13:30:27","2020-06-18 14:28:31","",""
59,MWCNU CIDADAP,"","08562139706","","",3273260,79,19,19,"2020-06-12 13:31:03","2020-06-18 14:29:22","",""
60,MWCNU BANDUNG WETAN,"","087824074798","","",3273200,79,19,19,"2020-06-12 13:31:50","2020-06-18 14:30:05","",""
61,MWCNU BANDUNG KIDUL,"Alamat : Komplek Sapta Taruna PU B6 no.11, Kel.Kujangsari, Kec.Bandung Kidul.","085352514399","","",3273080,79,19,19,"2020-06-12 13:32:34","2020-06-18 14:30:54","",""
62,MWCNU GEDEBAGE,"","81214445412","","",3273101,79,19,19,"2020-06-12 13:33:04","2020-06-18 14:31:50","",""
63,MWCNU BUAHBATU,Jln.margasari no 221 rt/rw 04/10 kel. Margasari kec.buah batu kota bandung,"081321929160","","",3273090,79,19,19,"2020-06-12 13:33:32","2020-06-18 14:32:28","",""
64,MWCNU RANCASARI,komp.  Pemda ciwastra no. 52 Rt/ Rw 005/015 margasari buah batu Bandung,"0872383824","","",3273100,79,19,19,"2020-06-12 13:34:07","2020-06-18 14:33:17","",""
65,MWCNU BOJONGLOA KIDUL, Jl Cibaduyut Raya Blok TVRI III Rt 03/03 Cibaduyut Wetan Kota Bandung,"081312706512","","",3273040,79,19,19,"2020-06-12 13:34:44","2020-06-18 14:40:19","",""
66,MWCNU BOJONGLOA KALER,Jl. Pagarsih Rt 02 Rw 01 Kel. Babakan Tarogong Kec. Bojongloa Kaler Bandung,"081573956977",mwcnubokal@gmail.com,"",3273030,79,19,19,"2020-06-12 13:35:25","2020-06-18 14:34:48","",""
67,MWCNU UJUNG BERUNG,"Alamat : Jl.Cigending 
                Rt 02
                Rw 03
                kelurahan pasirwangi
                Kecamatan Ujung berung
                Kota Bandung","83829781088","","",3273120,79,19,19,"2020-06-12 13:36:06","2020-06-18 14:35:41","",""
68,MWCNU CIBIRU,"","08554418966","","",3273110,79,19,19,"2020-06-12 13:36:43","2020-06-18 14:36:35","",""
69,MWCNU CINAMBO,"","0813200045566","","",3273121,79,19,19,"2020-06-12 13:37:16","2020-06-18 14:37:19","",""
70,MWCNU PANYILEUKAN,"","081910456541","","",3273111,79,19,19,"2020-06-12 13:37:47","2020-06-18 14:38:01","",""
71,MWCNU MANDALAJATI,"","082217410605","","",3273142,79,19,19,"2020-06-12 13:38:22","2020-06-18 14:38:39","",""
72,MWCNU ARCAMANIK,"","085222727775","","",3273130,79,19,19,"2020-06-12 13:39:01","2020-06-18 14:39:16","",""
74,MWCNU PAMULIHAN,Cinta mulya rt 02 rw 03  Desa Cilembu ,"082240993208","","",3211032,69,22,22,"2020-06-17 01:56:34","2021-09-08 11:18:15",-6.9127612 ,"107.8338718"
75,MWCNU Cipatat,Mesdjid Maulana Ridwan Desa Mandalasari Kecamatan Cipatat KBB,"","","",3217080,75,20,20,"2020-06-17 13:50:07","2021-09-03 06:14:27","",""
76,MWCNU Cipeundeuy,Pondok Pesantren Darul Irfan Kp Cijawa Kec. Cipeundeuy Kabupaten Bandung Barat,"081802066875",Kamilmustopa6@gmail.com,"",3217150,75,20,20,"2020-06-17 13:55:15","2021-08-18 17:12:41",-6735456107372550,-735456107372556
77,MWCNU Cikalongwetan,"""Jl. Raya Cikalongwetan
Kp. Ciawitali 01/21 Desa Mandalasari Kec. Cikalongwetan Kab. Bandung Barat 40556
(Komplek Pesantren Diniyah Babussalam)""","081321144449",mwcnucikalongwetan@gmail.com,"",3217140,75,20,20,"2020-06-17 13:56:28","2020-06-19 06:34:49",-6.738.366,"101.438.284"
78,MWCNU Cisarua,Jl.Pondok RT 02/04 Desa Pasirlangu Kec. Cisarua KBB,"087822397996",mwcnucisarua@gmail.com,"",3217130,75,20,20,"2020-06-18 05:33:20","2021-08-31 03:55:14",-6801595,"107535666"
79,DAWUAN,"Majelis Ta`lim Al-Huriyyah, Dusun Dawuan Babakan Oncom, Desa Dawuan Kaler,Kec. Dawuan, Kab. Subang 41271 ","085222483945","","",3213081,88,17,,"2020-06-29 03:01:04","2020-06-29 03:01:04",-6.5459977,"107.6894739"
80,MWCNU PAMANUKAN,Jl. Eyang Tirtapraja No. 43 Kecamatan Pamanukan Kabupaten Subang 41254,"",mwcnupamanukan@gmail.com,"",,88,17,,"2020-06-30 23:28:53","2020-06-30 23:28:53",-6.2853214,"107.8086113"
81,MWCNU TOMO,Jl Fatmawati /Tolengas-Jatigede.Dsn Margahurip Rt 02/01 Ds Marongge Kec Tomo Kabupaten Sumedang 45362 ,"085320738013","","",3211120,69,22,22,"2020-07-07 01:01:34","2021-09-08 11:22:57",-6.788897,"108.1165117"
82,MWCNU TANJUNGKERTA,Jl Mesjid no 7 Dsn Sukamantri Rt 01 Rw 03 Ds Sukamantri Kec Tanjungkerta Kabupaten Sumedang 45354 ,"082240431177","","",3211170,69,22,,"2020-07-07 01:05:36","2020-07-07 01:05:36",-6.7633635,"107.8619952"
83,MWCNU BUAHDUA,: Jl. Cilangkap Buahdua (Madrasah Bina Ummah) Dsn Cileungsing Rt 09 Rw 03 Ds Cilangkap Kec Buahdua Kabupaten Sumedang 45392 ,"082116557261","","",3211180,69,22,,"2020-07-07 01:08:11","2020-07-07 01:08:11",-6.7242501,"107.9597953"
84,MWCNU PASEH,Dusun Sukaasih RT 003 RW 008 Desa Legok Kaler Kecamatan Paseh Kabupaten Sumedang ( Pontren Nurussalaam Ash-shomariyah ) 45381,"082126118424","","",3211150,69,22,,"2020-07-07 01:11:27","2020-07-07 01:11:27",-6.7974671,"107.9669408"
85,MWCNU DARMARAJA ,Dsn. Cipaok RT. 04 RW. 01 Desa Tarunajaya Kec. Darmaraja Kab. Sumedang 45372,"081394980275",darmarajamwcnu@gmail.com,"",3211080,69,22,,"2020-07-07 01:13:09","2020-07-07 01:13:09",-6.903877 ,"108.065917"
86,MWCNU CISITU,Dusun Ramoseh Rt 03 Rw 08 Desa Linggajaya  Kecamatan Cisitu  Kabupaten Sumedang (Pontren Hikmatul Qur'an) 45371,"082219070314","","",3211071,69,22,,"2020-07-07 01:15:18","2020-07-07 01:15:18",-6.8916886,"107.9871652"
87,MWCNU CISARUA,Dusun Jambu RT 03 RW 02 Desa Cimara Kaler Kecamatan Cisarua Kabupaten Sumedang ( Pontren Ad-Daroen ) 45381,"085220026760","","",3211161,69,22,,"2020-07-07 01:20:03","2020-07-07 01:20:03",-6.8259391,"107.9769092"
88,MWCNU SUMEDANG UTARA,"Jalan anggkrek gang margaja rt 03 rw 18
kelurahan situ Sumedang Utara
Kode pos 45323 ","085321126874",Smdutaramwcnu@gmail.com,"",3211060,69,22,,"2020-07-07 01:22:15","2020-07-07 01:22:15",-6.8373176,"107.9116758"
89,MWC NU Kecamatan Agrabinta,Kp. Mekabakti Rt. 002/002 Desa Mekarsari,"08157035667",-,-,3203010,61,7,7,"2020-07-07 11:53:34","2021-08-13 07:04:04",-7.3809742,"106.8158824"
90,MWC NU Kecamatan Leles,Jl. Leles Km. 13 Kp. Batukasur Desa Mandalawangi ,"085863571952",-,-,3203011,61,7,7,"2020-07-07 11:54:12","2021-08-13 07:28:40",-7.3399043,"106.9475139"
91,MWC NU Kecamatan Sindangbarang,Kp. Cimareme Desa Talagasari,"081572920699",-,-,3203020,61,7,7,"2020-07-07 11:55:16","2021-08-13 06:56:46",-7.4464636,"107.0719328"
92,MWC NU Kecamatan Cidaun,Pondok Pesantren Al-Muttaqin Kp. Cibuntu Rt. 001/004 Desa Cisalak,"085659480757",-,-,3203030,61,7,7,"2020-07-07 11:55:33","2021-08-13 06:47:10",-7.3781807,"107.2072964"
93,MWC NU Kecamatan Naringgul,Pondok Pesantren Yanururu. Kp. Tipar Desa Naringgul,"082321270519",-,-,3203040,61,7,7,"2020-07-07 11:55:55","2021-08-13 06:59:39",-7.3436248,"107.1806314"
94,MWC NU Kecamatan Cibinong,Pondok Pesantren Darul Musyawaroh Rt. 002/010 Desa Panyindangan,"085862883257",-,-,3203050,61,7,7,"2020-07-07 11:56:16","2021-08-13 06:41:40",-7.3221477,"107.037181"
95,MWC NU Kecamatan Cikadu,Pondok Pesantren Al-Falah Rt. 001/001 Desa Mekarwangi.,"082320709312",-,-,3203051,61,7,7,"2020-07-07 11:56:36","2021-08-13 06:40:30",-7.3139204,"107.1240062"
96,MWC NU Kecamatan Tanggeung,Kp. Mekar Mulya Rt. 001/001 Desa Kertajaya,"085863450109",-,-,3203060,61,7,7,"2020-07-07 11:56:56","2021-08-13 06:49:50",-7.2546086,"107.0917352"
97,MWC NU Kecamatan Pasir Kuda,Jl. raya Kubang Desa Mekarmulya,"085222135646",-,-,3203061,61,7,7,"2020-07-07 11:57:18","2021-08-13 06:38:08",-7.2111964,"107.1576769"
98,MWC NU Kecamatan Kadupandak,Kp. Jatiwangi Rt. 001/005 Desa Sukakerta ,"085871570975",-,-,3203070,61,7,7,"2020-07-07 11:57:43","2021-08-13 07:21:23",-7.2107354,"106.9498839"
99,MWC NU Kecamatan Cijati,Jl. Raya Bojongkasih Desa Bojonglarang ,"085888444654",-,-,3203071,61,7,7,"2020-07-07 11:57:59","2021-08-13 06:43:18",-7.2881786,"106.9816023"
100,MWC NU Kecamatan Takokak,Kp. Sukarilah Rt. 002/002 Desa Waringinsari ,"082115128683",-,-,3203080,61,7,7,"2020-07-07 11:58:15","2021-08-13 07:05:13",-7.1942671,"106.9681709"
101,MWC NU Kecamatan Sukanagara,Pondok Pesantren Thoriqul Jannah. Kp. Rawasari Rt. 003/002 Desa Sukanagara,"081462270322",-,-,3203090,61,7,7,"2020-07-07 11:58:42","2021-08-13 07:06:16",-7.1032098,"107.0198589"
102,MWC NU Kecamatan Pagelaran,DKM Kaum Nursaadah Kp. Pasar Rt. 006/001 Desa Pagelaran,"085721463343",-,-,3203100,61,7,7,"2020-07-07 11:58:59","2021-08-13 06:58:17",-7.1600133,"107.1159783"
103,MWC NU Kecamatan Campaka,Pondok Pesantren Darurrohman Attaqwa Kp. CiKekep Rt. 006/003 Desa Cidadap,"083837318019",-,-,3203110,61,7,7,"2020-07-07 11:59:29","2021-08-13 07:02:00",-7.020337,"107.1299157"
104,MWC NU Kecamatan Campaka Mulya,Kp. Sukalilah Rt. 005/001 Desa Campakamulya,"085646727400",-,-,3203111,61,7,7,"2020-07-07 11:59:55","2021-08-13 06:50:55",-7.0717444,"107.1471644"
105,MWC NU Kecamatan Cibeber,"Kp. Babakan Gelar, Rt. 007/001 Desa Cibaregbeg ","081563426232",-,-,3203120,61,7,7,"2020-07-07 12:00:14","2021-08-13 06:53:19",-6.9079846,"107.1619512"
106,MWC NU Kecamatan Warungkondang,Pondok Pesantren Al-Muin. Jl. Raya Sukabumi Km. 06 Kp. Cibanban Desa Ciwalen.,"085712192247",-,-,3203130,61,7,7,"2020-07-07 12:00:32","2021-08-13 06:39:27",-6.857172,"107.0806154"
107,MWC NU Kecamatan Gekbrong,Pondok Pesantren Asy Syarifiyah Kp. Cibleng 003/001 Desa Sukaratu,"082320056787",-,-,3203131,61,7,7,"2020-07-07 12:00:53","2021-08-13 06:44:33",-6.859324,"106.9719863"
108,MWC NU Kecamatan Cilaku,Kp. Pasirkenal 002/010 Desa Ciharashas ,"087820230009",-,-,3203140,61,7,7,"2020-07-07 12:01:13","2021-08-13 06:45:59",-6.8692316,"107.1103233"
109,MWC NU Kecamatan Sukaluyu,Pondok Pesantren Al-Ikhlas Al Musri' Rt. 006/005 Desa Hegarmanah,"087714730777",-,-,3203150,61,7,7,"2020-07-07 12:01:32","2021-08-13 07:00:52",-6.7946607,"107.1991298"
110,MWC NU Kecamatan Bojongpicung,"","","","",3203160,61,7,,"2020-07-07 12:01:50","2020-07-07 12:01:50","",""
112,MWC NU Kecamatan Haurwangi,Pondok Pesantren Al-Inabah. Kp. Mareleng Desa Kertamukti ,"089658047787",-,-,3203161,61,7,7,"2020-07-07 12:02:09","2021-08-13 06:55:35",-6.8449016,"107.2811938"
113,MWC NU Kecamatan Ciranjang,"Pondok Pesantren Arridho. Jl. Moch Ali 2.5 Km, Kp. Rawabango Desa Mekargalih","087820399572",-,-,3203170,61,7,7,"2020-07-07 12:02:32","2021-08-13 06:52:12",-6.8317678,"107.2590859"
114,MWC NU Kecamatan Mande,Pondok Pesantren Daarusyfa Kp. Jangari Rt. 005/011 Desa Bobojong,"085659415756",-,-,3203180,61,7,7,"2020-07-07 12:02:53","2021-08-13 06:48:43",-6.7563855,"107.1155104"
115,MWC NU Kecamatan Karangtengah,Pondok Pesantren Miftahul Khoer. Kp. Kulur Rt. 001/007 Desa Ciherang.,"08817250099",-,-,3203190,61,7,7,"2020-07-07 12:03:11","2021-08-13 06:35:36",-6.7914686,"107.1946558"
116,MWC NU Kecamatan Cianjur,"","","","",3203200,61,7,,"2020-07-07 12:03:34","2020-07-07 12:03:34","",""
117,MWC NU Kecamatan Cugenang,Pondok Pesantren Al-Mutmainnah. Kp. Sarampad Rt. 003/002 Desa Sarampad.,"085294851584",-,-,3203210,61,7,7,"2020-07-07 12:03:56","2021-08-13 06:36:57",-6.8068071,"107.0314304"
118,MWC NU Kecamatan Pacet,Komplek Maarif Pacet Desa Cipendawa,"081912231113",-,-,3203220,61,7,7,"2020-07-07 12:04:13","2021-08-13 07:27:36",-6.7522669,"107.0437227"
120,MWC NU Kecamatan Cipanas,"Kp. Balakang Kidul, RT. 003/002 Desa Sindanglaya Kecamatan Cipanas","082128808271","","",3203221,61,7,7,"2020-07-07 12:04:33","2021-09-19 04:28:21",-6.7272823,"107.0393731"
121,MWC NU Kecamatan Sukaresmi,Ponpes Roudotul Mubtadi'ien Kp. Joglo Rt. 005 Rw. 002 Desa Nagrak. ,"085220894482",-,-,3203230,61,7,7,"2020-07-07 12:04:50","2021-08-13 06:33:51",-6.715891,"107.026484"
122,MWC NU Kecamatan Cikalongkulon,Kp. Ngantay Rt. 004/001 Desa Lembahsari,"085624919798",-,-,3203240,61,7,7,"2020-07-07 12:05:10","2021-08-13 06:54:28",-6.6712521,"107.1426499"
125,Bekasi Timur,"","","","",3275040,81,13,,"2021-06-16 07:46:04","2021-06-16 07:46:04","",""
126,Bekasi Barat,"","","","",3275060,81,13,,"2021-06-16 07:46:44","2021-06-16 07:46:44","",""
127,Bekasi Utara,"","","","",3275070,81,13,,"2021-06-16 07:47:06","2021-06-16 07:47:06","",""
128,Bekasi Selatan,"","","","",3275050,81,13,,"2021-06-16 07:47:29","2021-06-16 07:47:29","",""
129,Rawalumbu,"","","","",3275041,81,13,,"2021-06-16 07:47:49","2021-06-16 07:47:49","",""
130,Medan Satria,"","","","",3275061,81,13,,"2021-06-16 08:03:11","2021-06-16 08:03:11","",""
131,Jatiasih,"","","","",3275020,81,13,,"2021-06-16 08:03:35","2021-06-16 08:03:35","",""
132,Jatisampurna,"","","","",3275011,81,13,,"2021-06-16 08:03:55","2021-06-16 08:03:55","",""
133,Pondokmelati,"","","","",3275012,81,13,,"2021-06-16 08:04:27","2021-06-16 08:04:27","",""
134,Mustikajaya,"","","","",3275031,81,13,,"2021-06-16 08:04:48","2021-06-16 08:04:48","",""
135,Pondokgede,"","","","",3275010,81,13,,"2021-06-16 08:05:10","2021-06-16 08:05:10","",""
136,Bantargebang,"","","","",3275030,81,13,,"2021-06-16 08:05:35","2021-06-16 08:05:35","",""
137,MWC NU SETU,"Perumahan grand harmoni Blok H4 No 35, lubang buaya, Kec. Setu, Bekasi, Jawa Barat 17520","081389375508","","",3216010,74,14,14,"2021-06-16 08:05:36","2021-09-01 14:50:04",-6.278344733047801,"107.07113434373075"
138,MWC NU Pataruman,Sukamaju,"","","",3279030,85,27,27,"2021-06-16 08:08:10","2021-06-16 08:08:45","",""
139,MWC NU Langensari,"Gedung Dakwah Langensari
Dusun Langen","","","",3279040,85,27,,"2021-06-16 08:11:24","2021-06-16 08:11:24","",""
140,MWC NU Banjar,"","","","",3279010,85,27,,"2021-06-16 08:13:13","2021-06-16 08:13:13","",""
141,MWC NU SERANG BARU,"Kp. Pasirandu RT/RW 09/05, Sukasari, Kec. Serang Baru, Bekasi, Jawa Barat 17330","081383624803","","",3216021,74,14,14,"2021-06-16 08:13:24","2021-09-01 14:53:09",-6.382725194603749,"107.10587887318788"
142,MWC NU Purwaharja,"","","","",3279020,85,27,,"2021-06-16 08:13:47","2021-06-16 08:13:47","",""
143,MWC NU CIKARANG UTARA,Kp. Harapan Baru Desa Cikarang Kota,"089643099321","","",3216061,74,14,14,"2021-06-16 08:15:30","2021-08-28 04:54:52","",""
144,MWC NU CIKARANG PUSAT,"","","","",3216022,74,14,,"2021-06-16 08:20:43","2021-06-16 08:20:43","",""
145,MWC NU CIKARANG TIMUR,Jln. Kp. Kalenderwak Rt 04/01 Desa Karangsari,"",jayamarjaya37@gmail.com,"",3216041,74,14,14,"2021-06-16 08:21:26","2021-09-01 15:04:42",-6.249283538344675,"107.2053937971099"
146,MWC NU BOJONG MANGU,"","","","",3216031,74,14,,"2021-06-16 08:22:19","2021-06-16 08:22:19","",""
147,MWC NU KARANGBAHAGIA,"","","","",3216062,74,14,14,"2021-06-16 08:24:38","2021-06-18 02:55:32","",""
148,MWC NU Kawalu,perum Tamansari indah Kel. Kersamenak Kec.Kawalu Kota Tasikmalaya,"1",mwcnukawalu@gmail.com,-,3278010,84,25,25,"2021-06-16 09:19:28","2021-08-24 04:26:21","",""
149,MWC NU SUKARAJA,jl Raya cibalanarik Durotul Jabal belakang Masjid besar Kec Sukaraja kp.empang Rt.004 RW.002 Desa Sukapura Kec.Sukaraja kabTasikmalaya,"085322486722",mwcsukaraja@gmail.com,https://medianu.or.id/,3206130,64,24,24,"2021-06-16 09:43:28","2021-09-15 14:16:43","",""
150,MWC NU PEBAYURAN,Kp. Rumbia Rt 04/02 Desa Karangreja,"","","",3216130,74,14,14,"2021-06-17 06:19:31","2021-09-01 14:56:19",-6.170007154888739,"107.24450164578245"
152,MWC NU KEDUNG WARINGIN,Jl. Rengasbandung Rt 02/05 Desa Karangsambung Kecamatan Kedungwaringin Kabupaten Bekasi,"081284586701","","",3216050,74,14,14,"2021-06-18 06:30:09","2021-09-01 15:01:47",-6.266739873449319,"107.22727123420023"
153,MWC NU CIKARANG SELATAN,Perum. Cikarang Festival Desa Ciantra,"087828124078","","",3216023,74,14,14,"2021-06-18 17:12:20","2021-08-28 05:02:20","",""
154,MWC NU CIBITUNG,"","","","",3216070,74,14,,"2021-06-18 17:13:29","2021-06-18 17:13:29","",""
155,MWC NU TAMBUN SELATAN,"","","","",3216081,74,14,14,"2021-06-18 17:14:36","2021-06-23 16:41:58","",""
156,MWC NU TAMBUN UTARA,Jl. Manggis 2 Kp. Rawa Kalong RT 02 RW 05 Desa Karang Satria,"","","",3216082,74,14,14,"2021-06-18 17:15:20","2021-09-01 14:42:08",-6.2293454248618145,"107.04222977628145"
157,MWC NU BABELAN,Kp. Kerangkeng Rt 003/002 Desa Buni Bakti,"085894796925","","",3216090,74,14,14,"2021-06-18 17:15:59","2021-09-01 15:06:56",-6.108089069145974,"107.0339047836167"
158,MWC NU TARUMAJAYA,"Jl. Tarumajaya Raya No.1, Setiamulya, Kec. Tarumajaya, Bekasi, Jawa Barat 17213","081289245875","",https://mwcnutarumajaya.or.id/,3216100,74,14,14,"2021-06-18 17:16:40","2021-09-01 14:39:24",-6.126837297393516,"106.99156820657187"
159,MWC NU TAMBELANG,"","","","",3216110,74,14,,"2021-06-18 17:17:18","2021-06-18 17:17:18","",""
160,MWC NU SUKAWANGI, Jl. Raya Sukawangi No.1 Ds. Sukawangi,"","","",3216111,74,14,14,"2021-06-18 17:18:00","2021-09-01 14:43:37",-6.148304414146855,"107.12619318398498"
161,MWC NU SUKATANI,Ponpes Al Istighotsah Assalafi Kp. Buniayi RT 01/02 Desa Sukarukun,"","",https://alistighotsahsukatani.business.site/,3216120,74,14,14,"2021-06-18 17:18:40","2021-09-01 15:00:28",-6.2145526472676655,"107.16604676900764"
162,MWC NU SUKAKARYA,"","","","",3216121,74,14,,"2021-06-18 17:20:45","2021-06-18 17:20:45","",""
163,MWC NU CABANGBUNGIN,"","","","",3216140,74,14,,"2021-06-18 17:22:00","2021-06-18 17:22:00","",""
164,MWC NU MUARA GEMBONG,"Jl. Jaya Sakti, Jayasakti, Muara Gembong, Bekasi, Jawa Barat 17720","","","",3216150,74,14,14,"2021-06-18 17:22:47","2021-09-01 14:59:38",-6.029465183915578,"107.1079841259446"
165,MWC NU CIBARUSAH,"","","","",3216030,74,14,14,"2021-06-18 17:23:27","2021-09-17 14:16:04","",""
166,MWC NU CIKARANG BARAT,Jl. Infeksi kali rt 003/011 Kp. Cikedokan Malang Desa Suka danau,"085710004497","","",3216071,74,14,14,"2021-06-18 17:24:11","2021-09-01 15:06:00",-6.3336595493168595,"107.08052246450309"
167,CILODONG,Jl. H. Abd. Ghani II Rt 02/02 Kel. Kalibaru Kec. Cilodong,"082210286078",mwcnucilodong@gmail.com,-,,82,4,4,"2021-06-24 14:03:43","2021-06-29 15:44:18",-6.446652,"106.838897"
168,CIPAYUNG,Jl. Rawa Indah Rt 03/02 No.14 Kel. Bojong Pondok Terong Kecamatan Cipayung Kota Depok,"085973986968",d.mwcnucipayung@gmail.com,"",,82,4,4,"2021-06-24 14:31:23","2021-06-29 15:42:52",-6.433137,"106.804536"
170,CINERE,Jl. Madrasah 1 No.24 Rt 026/003 Kel.Gandul Kec. Cinere Kota Depok,"085781463379",Nu.mwccinere@gmail.com,"",,82,4,4,"2021-06-28 09:52:02","2021-06-29 15:43:30",-6.342453,"106.784815"
171,CIMANGGIS,"Jl. Alamanda Areman Rt 08/07 Kelurahan Tugu, Kec. Cimanggis Kota Depok","088219975483","","",,82,4,4,"2021-06-28 09:56:50","2021-06-29 15:43:58","",""
172,TAPOS,Pondok Pesantren Tb. Pangeling Jalan Raya Tapos Kota Depok,"085715114067",nutaposmwc@gmail.com,-,,82,4,4,"2021-06-28 10:01:01","2021-06-29 15:28:21",-6.421764,"106.888061"
173,BOJONG SARI,"Pondok Pesantren Al Kamilah, Jalan Serua Raya Rt 03/05 No.06 Kel. Serua Kec. Bojong Sari Kota Depok","08121909413","","",,82,4,4,"2021-06-28 10:06:41","2021-09-15 17:37:02",-6.367799,"106.733644"
174,LIMO,Jl. H. Midi II No.7 Rt.05/02 Pondok Pesantren Sirojussa'adah,"081218010685","","",,82,4,4,"2021-06-29 14:14:28","2021-08-30 05:25:06",-6.365357,"106.773794"
175,SAWANGAN,Jl. Abdul Wahab No.48 Rt 02/07 Kel. Kedaung Kec. Sawangan Kota Depok,"085778606098",mwcnukecsawangan@gmail.com,"",,82,4,4,"2021-06-29 15:16:15","2021-06-29 15:29:26",-6.363122,"106.748636"
176,SUKMAJAYA,Masjid Jami Muhammad Yusuf Jl. Pesona Khayangan No.11 Mekarjaya Kec. Sukmajaya 16411,"081806881045",mwcsukamajaya@gmail.com,"",,82,4,4,"2021-06-29 15:46:57","2021-06-29 15:55:59",-6.38047013494601,"106.84128376679018"
177,PANCORAN MAS,"","08118901891","","",,82,4,4,"2021-06-29 15:50:43","2021-09-15 17:38:11","",""
178,BEJI,PERUM DEPOK MULYA Jl. Losari Blok AI No. A1 ,"082111880313",dsuandi789@gmail.com,"",,82,4,4,"2021-06-29 15:51:14","2021-09-01 14:34:51",-6.3771257047489005,"106.8155355408034"
179,MWC NU KARANGSEMBUNG,Griya Karangsembung Permai karangsembung,"08998707092","",nucirebon.or.id,3209050,86,8,8,"2021-07-02 06:16:38","2021-07-30 07:09:32",-6.843103162795902,"108.64005382578995"
180,MWCNU TALUN,"Desa Kecomberan, Talun","081313332555","",nucirebon.or.id,3209111,86,8,8,"2021-07-02 07:22:49","2021-08-07 06:48:48",-6.753922482897561,"108.51171569900661"
181,MWCNU GUNUNG JATI,"Desa Jatimerta, Gunungjati
","085317821184",data.nukabcirebon@gmail.com,nucirebon.or.id,3209171,86,8,8,"2021-07-02 07:41:34","2021-08-04 15:53:45",-6.6583238289895075,"108.54550781361176"
182,MWCNU SUSUKANLEBAK,Blok Wage Ds Susukantonggoh,"085224984084","",nucirebon.or.id,3209061,86,8,8,"2021-07-02 07:59:09","2021-07-30 07:09:07",-6.853170227534397,"108.61511627537998"
183,MWC Bogor Barat,"PP Riyadhul 'Anam Al Arfah, Jl. Sirnasari, RT.02 RW.09, Kelurahan Sindang Barang Kec. Bogor Barat","081572427420",mwcnubogbar@gmail.com,http://www.mwcnubogbar.com,3271050,77,3,3,"2021-07-03 00:47:04","2021-09-19 02:41:32",-6.577045,"106.760576"
184,MWC Bogor Utara,Jl. Mandala RW 009 Kelurahan Ciparigi Kecamatan Bogor Utara,"081272861959",mwcnubogorutara@gmail.com,www.pcnukotabogor.or.id,3271030,77,3,,"2021-07-03 00:49:29","2021-07-03 00:49:29","",""
185,MWC Bogor Selatan,"Jl. Cibeureum RT 007 RW 005, Kelurahan Mulyaharja, Kecamatan Bogor Selatan","085221070008", misbahudin465@gmail.com,"",3271010,77,3,3,"2021-07-03 00:55:21","2021-09-19 02:40:02","",""
186,MWC NU SARIWANGI,Kp. Bojongpetir Desa Sariwangi kec. sariwangi kab. tasikmalaya,"085213868995",mwcnusariwangi30@gmail.com,https://medianu.or.id/,3206211,64,24,24,"2021-07-05 11:04:09","2021-09-16 13:32:42","",""
188,MWC NU CULAMEGA,Alamat Jalan Raya Gubernur sewaka no 1 Culamega Tasikmalaya pos 46188,"0813238592",mwcnuculamega@gmail.com,https://medianu.or.id/,3206072,64,24,24,"2021-07-05 11:45:00","2021-09-15 12:30:52","",""
189,MWC NU CIBALONG,Jl.karangnunggal RT 04 RW 04 Desa Cibalong Kec. Cibalong,"085747936185",mwccibalong@gmail.com,https://medianu.or.id/,3206060,64,24,24,"2021-07-05 11:55:37","2021-09-16 11:41:14","",""
190,MWC NU SUKARATU,Kp. Gunungbalong Ds. Gunungsari Kec. Sukaratu,"082119424188",mwcnusukaratu@gmail.com,https://medianu.or.id/,3206221,64,24,24,"2021-07-05 12:04:53","2021-09-16 08:35:54","",""
191,MWC NU SODONGHILIR, Jl. Raya Sodonghilir Kp. Sodong RT 002/001 Desa Sodonghilir-Tasikmalaya Kode Pos 46473,"081323060776",mwcsodonghilir@gmail.com,https://medianu.or.id/,3206090,64,24,24,"2021-07-05 12:17:36","2021-09-16 13:31:08","",""
192,MWC NU LEUWISARI,Kp. Cijoho Rt. 30 Rw. 02 Desa. Arjasari Kec. Leuwisari,"081323811488",mwcnuleuwisari@gmail.com,https://medianu.or.id/,3206210,64,24,24,"2021-07-05 12:27:11","2021-09-16 08:33:23","",""
193,MWC NU CIAWI,Ponpes Nurul Ulum Kp. Pasirpari RT. 02 RW. 07 Desa. Pasirhuni Kec. Ciawi,"081284775905",mwcnuciawi36@gmail.com,https://medianu.or.id/,3206260,64,24,24,"2021-07-05 12:33:08","2021-09-16 08:27:14","",""
194,MWC NU PAGEURAGEUNG,KP. Cimangliud Rt 01 Rw 01 Desa Sukadana Kec. Pageurageung,"082321139173",mwcnupagerageung@gmail.com,https://medianu.or.id/,3206270,64,24,24,"2021-07-05 12:43:06","2021-09-18 08:19:56","",""
195,MWC NU SALAWU,"Kp. Nanggerang RT.027 RW.004 Desa Salawu, Kecamatan Salawu, Kabupaten Tasikmalaya","085314870889",mwcnukecsalawu20@gmail.com,https://medianu.or.id/,3206110,64,24,24,"2021-07-05 12:49:20","2021-09-16 13:29:43","",""
197,MWC NU SUKARESIK,Pesantren Al-Manshuriyah cimanggu desa sukamenak kecamatan sukaresik,"081380281985",mwcnuskrsk@gmail.com,https://medianu.or.id/,3206271,64,24,24,"2021-07-06 06:30:56","2021-09-15 11:57:45","",""
198,MWC NU KADIPATEN,"Kp. Gentong Rt. 02 RW. 01 Desa, Buniaasih Kec. Kadipaten","082116073766",mwcnukadipaten37@gmail.com,https://medianu.or.id/,3206261,64,24,24,"2021-07-06 06:47:00","2021-09-16 08:28:13","",""
199,MWC NU JAMANIS,Jl Tonjong Kp. Lengkong Desa. Sindangraja Kec. Jamanis,"085223294166",jamanismwcnu@gmail.com,https://medianu.or.id/,3206250,64,24,24,"2021-07-06 07:01:58","2021-09-16 08:29:22","",""
200,MWC NU RAJAPOLAH,Komplek Al-Mahbubah Kp. Bungursari Ds. Sukaraja Kec. Rajapolah,"081320045666",mwcnu.rajapolah@gmail.com,https://medianu.or.id/,3206240,64,24,24,"2021-07-06 10:35:58","2021-09-16 08:30:59","",""
201,MWC NU SUKAHENING,Kp. Sukahening Ds. Sukahening Kec. Sukahening,"087897551997",mwcnusukahening@gmail.com,https://medianu.or.id/,3206231,64,24,24,"2021-07-06 10:46:52","2021-09-16 08:29:59","",""
202,MWC NU CISAYONG,KP. Nagarawangi rt.02/04 desa Nusawangi kec. CISAYONG,"081222952669",mwcnucisayong@gmail.com,https://medianu.or.id/,3206230,64,24,24,"2021-07-06 10:57:55","2021-09-16 13:31:55","",""
203,MWC NU PADAKEMBANG,Kp. Sindangsari Ds. Rancapaku Kec. Padakembang,"085223483892",mwcpdk29@gmail.com,https://medianu.or.id/,3206212,64,24,24,"2021-07-06 11:23:23","2021-09-16 08:32:11","",""
204,MWC NU CIGALONTANG,Kp. Cibeureum Ds. Nangerang Kec. Cigalontang,"081224568446",mwcnukeccigalontang@gmail.com,https://medianu.or.id/,3206200,64,24,24,"2021-07-06 11:40:09","2021-09-16 08:38:43","",""
205,MWC NU SUKARAME,Kp. Cantilan Desa. Sukarame Kec. Sukarame,"085320285172",mwcnusukaramee@gmail.com,https://medianu.or.id/https://medianu.or.id/,3206191,64,24,24,"2021-07-06 11:54:32","2021-09-16 08:37:09","",""
206,MWC NU MANGUNREJA,Kp. Sindangsari Ds. Sukasukur Kec. Mangunreja,"081211305428",mwcnumangunreja25@gmail.com,https://medianu.or.id/,3206192,64,24,24,"2021-07-06 12:11:10","2021-09-16 08:37:53","",""
207,MWC NU GUNUNGTANJUNG,"Jl. Raya Gunungtanjung Kp. Tawangsari RT 003 RW 003 DÃ©sa/ Kec. Gunungtanjung no 40
Kode Pos : 46418","085220881597",mwcgunungtanjung1926@gmail.com,https://medianu.or.id/,3206161,64,24,24,"2021-07-06 12:50:02","2021-09-17 07:50:27","",""
208,MWC NU MANONJAYA,Komplek Pst. Manarul Huda Kp. Walagar RT. 01 RW.  01 Ds. Kamulyan,"081320544542",mwcnumanonjaya@gmail.com,https://medianu.or.id/,3206160,64,24,24,"2021-07-06 12:59:53","2021-09-17 07:49:37","",""
209,MWC NU KARANGJAYA,Dusun Sukarapih RT 05 Rw 02 Desa karangjaya Kecamatan Karangjaya Kabupaten Tasikmalaya,"082315777417",mwcnukecamatankarangjaya@gmail.com,https://medianu.or.id/,3206151,64,24,24,"2021-07-06 13:08:39","2021-09-16 08:19:43","",""
210,MWC NU CINEAM,"Sekretariat: Kp. Babakan RT 004/001 Desa Ciampanan Kec. Cineam-Tasikmalaya 
Kode Pos 46198 ","081323183645",mwcnucineam@gmail.com,https://medianu.or.id/,3206150,64,24,24,"2021-07-06 13:14:02","2021-09-17 07:50:00","",""
211,MWC NU JATIWARAS,"Alamat Komplek pesantren Baiturrohmah
Jln raya jatiwaras kmp.Demunglandung Rt/Rw.002/001 Ds.papayan kec. jatiwaras kab. Tasikmalaya","082118798921",mwcnujatiwaras@gmail.com,https://medianu.or.id/,3206141,64,24,24,"2021-07-06 13:26:22","2021-09-18 08:40:29","",""
212,MWC NU SALOPA,Kp. Haurkuning Ds. Mandalaguna Kec. Salopa,"085221852544",mwcnusalopa@gmail.com,https://medianu.or.id/,3206140,64,24,24,"2021-07-06 13:36:15","2021-09-16 08:41:41","",""
213,MWC NU PUSPAHIANG,"Kp. Cilongan, KM. 8 Jl.Raya Puspahiang Kab.Tasikmalaya","085323909484",mwcnupuspahiang@gmail.com,https://medianu.or.id/,3206111,64,24,24,"2021-07-06 13:47:55","2021-09-16 11:33:16","",""
214,MWC NU TARAJU,Komplek Ponpes Miftahul  Huda Kp.  Kp. Cigolong Rt/Rw 024/006 Desa Singasari Taraju-Tasikmalaya Kode Pos 46474,"085223381408",mwcnutaraju@gmail.com,https://medianu.or.id/,3206100,64,24,24,"2021-07-06 13:55:20","2021-09-16 13:30:16","",""
215,MWC NU KARANGNUNGGAL,Jl. Adiwinata Kp. Cipari RT. 01 RW. 03 Desa Karangmekar Kec. Karangnunggal.,"082358902021",mwcnukarangnunggal@gmail.com,https://medianu.or.id/,3206020,64,24,24,"2021-07-06 14:07:22","2021-09-16 13:31:32","",""
216,MWC NU PANCATENGAH,Kp. Bongas Desa. Bongas Kec. Pancatengah,"081323134477",mwcnupancatengah@gmail.com,https://medianu.or.id/,3206040,64,24,24,"2021-07-06 14:20:02","2021-09-16 08:24:44","",""
217,MWC NU CIKALONG,Jl Cikalong Km. 01 Desa. Cikalong Kec. Cikalong,"082128789068",mwcnucikalong@gmail.com,https://medianu.or.id/,3206030,64,24,24,"2021-07-06 14:28:36","2021-09-16 08:23:16","",""
218,MWC NU CIKATOMAS,Jln Raya CIkatomas No. 245 Desa. Pakemitan Kec. Cikatomas,"085223051696",mwcnucikatomas@gmail.com,https://medianu.or.id/,3206050,64,24,24,"2021-07-06 14:38:19","2021-09-16 08:24:16","",""
219,MWC NU BANTARKALONG,Jl. Pemuda II Kp. Karangsari RT 008/001 Desa Hegarwangi Bantarkalong-Tasikmalaya Kode Pos 46187,"085353075212",mwcbantarkalong@gmail.com,https://medianu.or.id/,3206070,64,24,24,"2021-07-06 14:48:03","2021-09-16 11:42:38","",""
220,MWC NU BOJONGASIH,"Jl. Raya Bojongasih Kp.Sawahlega Rt 04 Rw 08 Bojongngasih Tasikmalaya,","081214246569",mwcnubojongasih@gmail.com,https://medianu.or.id/,3206071,64,24,24,"2021-07-06 14:57:20","2021-09-16 13:30:40","",""
221,MWC NU BOJONGGAMBIR,Jl. Raya Ciawi No. 74 Bojonggambir Tasikmalaya,"08122474885",mwcnubogam@gmail.com,https://medianu.or.id/,3206080,64,24,24,"2021-07-06 15:05:27","2021-09-15 11:58:31","",""
222,MWC NU PARUNGPONTENG,PONPES CIWALINI DESA CIBUNGUR KECAMATAN PARUNGPONTENG,"081311259160",mwcnukecamatanparungponteng@gmail.com,https://medianu.or.id/,3206061,64,24,24,"2021-07-09 11:43:18","2021-09-15 10:03:13","",""
224,MWC Cicalengka,Cicalengka,"","","",3204100,62,18,,"2021-07-26 09:38:22","2021-07-26 09:38:22","",""
225,MWC NU Babakan Madang,YPI Insan Cita Kp.Cipambuan RT.04/02 Desa Kadumanggu Kec.Babakan Madang Kab.Bogor 16811,"081219824449",mukhlis1976.mm@gmail.com,Fb.mwcnubabakanmadang,3201140,59,2,2,"2021-07-28 06:55:51","2021-09-01 06:36:16","-6,543,490","106,852,497"
226,MWC Bojong Gede,Kedung Jiwa Desa Kedung Waringin Kecamatan Bojonggede,"081290802100",mwcnu.bojonggede1926@gmail.com,MWC NU Bojonggede (Fb dan Youtube),3201220,59,2,2,"2021-07-28 06:56:49","2021-09-09 05:17:59","64.535.961","1.067.990.205"
227,MWC Caringin,Kp. Cisempur rt.01/02 ds. Cinagara caringin bogor,"6281388215661",mwcnucaringin01@gmail.com,"",3201090,59,2,2,"2021-07-28 06:57:22","2021-09-09 05:33:56","-6,7318927, 106,8210913","-6,7318927, 106,8210913"
228,MWC Cariu,"","","","",3201160,59,2,,"2021-07-28 06:57:57","2021-07-28 06:57:57","",""
229,MWC Ciampea,KP. CIBADAK KAUM RT 003/002 DESA CIBADAK,"081510951103",ponpesarridho19@gmail.com,M. TARYANI,3201050,59,2,2,"2021-07-28 06:58:21","2021-09-09 05:28:58",-642.699,"10.668.169"
230,MWC Ciawi,Pesantren Al-Fakhriyah. Jl. Veteran III (tapos) Rt. 01/03 Kp. Caringin Desa Banjarsari Kecamatan Ciawi Kabupaten Bogor,"081316130881",Junaedi_haz@yahoo.com,WhatAps,3201100,59,2,2,"2021-07-28 06:58:45","2021-09-09 05:21:31",-6.681.552,"106.871.184"
231,MWC Cibinong,Jl. Lingkungan Kayu Manis No.30 Rt.02/01 cibinong bogor Jawa barat 16911,"085817508780",muhamadjarkasih67@gmail.com,-,3201210,59,2,2,"2021-07-28 06:59:21","2021-09-07 09:58:20",-6.479.558,"106.857.535"
232,MWC Cibungbulang,Jl. KH. Abdul Hamid Kp. Cemplang Rt. 04/01 Cibungbulang Bgr,"081546053029",abdullatif16177@gmail.com,-,3201040,59,2,2,"2021-07-28 06:59:52","2021-09-09 05:13:35",-6.193.125,"106.821.810"
233,MWC NU Cigombong,Jl. Mayjen HR Edi Sukma Kp. Tambakan RT 002/001 Desa Wates Jaya Kec. Cigombong Kab. Bogor,"081320445227",nucigombong@gmail.com,Mwc NU Cigombong (Facebook) ,3201081,59,2,2,"2021-07-28 07:02:34","2021-09-09 05:15:16","-6,7416798","6.683.991"
234,MWC Cigudeg,"","","","",3201270,59,2,,"2021-07-28 07:03:06","2021-07-28 07:03:06","",""
235,MWCNU Cijeruk,Kampung Kawung Luwuk RT 02 RW 07 Desa Cijeruk Kecamatan Cijeruk kabupaten Bogor,"085880156143",ma.cahayahati.cijeruk@gmail.com,"",3201080,59,2,2,"2021-07-28 07:03:33","2021-09-14 14:36:26",-6.965.432,-70.987.654
236,MWCNU Cileungsi,Kp. Dayeuh RT 001/001 Ds. Dayeuh Kec. Cileungsi Kab. Bogor,"081293240260",anggagunaefi34049@gmail.com,MWCNU Cileungsi (ig),3201180,59,2,2,"2021-07-28 07:04:04","2021-09-01 06:51:16","-6,438,589","106,953,837"
237,MWC NU Gunung Putri,Jln.Letda Natsir No.60 RT.01 RW.01 Desa Nagrak Kecamatan Gunung Putri Kabupaten Bogor,"082111114888",hajiabas2017@gmail.com,"FB, IG dan YouTube ( Gunung Putri )",3201190,59,2,2,"2021-07-29 04:46:14","2021-09-09 14:10:57","-6,3921618","106,9383997"
238,MWC NU Leuwiliang,Kampus Aswaja IUQI Leuwiliang,"089611374566",Mwclw26@gmail.com,MWC NU leuwiliang,3201020,59,2,2,"2021-07-29 04:54:25","2021-09-01 06:28:26","",""
239,MWCNU KARANGWARENG,"Desa Karangsuwung, Kecamatan Karangwareng","08112449224",data.nukabcirebon@gmail.com,"",,86,8,,"2021-07-29 05:22:57","2021-07-29 05:22:57",-6.83382001126051,"108.63559722402941"
240,MWCNU ASTANAJAPURA,Desa Japura Kidul (Dekat Pasar Asjap),"085226470387",data.nukabcirebon@gmail.com,"",3209080,86,8,,"2021-07-29 05:42:56","2021-07-29 05:42:56",-6.812391811637275,"108.64385213445104"
241,MWCNU KAPETAKAN,"Desa Pegagan Kidul, Kapetakan","082318427404",data.nukabcirebon@gmail.com,"",3209180,86,8,,"2021-07-29 06:29:48","2021-07-29 06:29:48",-6.584418993939163,"108.49185098224169"
242,MWCNU LEMAHABANG,"Desa Ciawi, Lemahabang","082219425551",data.nukabcirebon@gmail.com,"",3209060,86,8,,"2021-07-29 06:48:33","2021-07-29 06:48:33",-6.828914394527034,"108.62782822482122"
243,MWCNU CIWARINGIN,"Desa Gintungranjeng, Ciwaringin","081324403272",data.nukabcirebon@gmail.com,"",3209210,86,8,,"2021-07-29 07:06:50","2021-07-29 07:06:50",-6.66672204660479,"108.38125560162449"
244,MWCNU KEDAWUNG,Masjid Al Ikhlas Desa Kedawung,"082214715211",data.nukabcirebon@gmail.com,"",3209162,86,8,,"2021-07-29 07:25:01","2021-07-29 07:25:01",-6.730078297047476,"108.52174782737475"
245,MWCNU PABUARAN,"Desa Pabuaran Lor, Pabuaran","081214031917",data.nukabcirebon@gmail.com,"",3209021,86,8,,"2021-07-30 07:00:40","2021-07-30 07:00:40",-6.902237453643119,"108.72066511126576"
246,MWCNU ARJAWINANGUN,"Desa Tegalgubug, Arjawinangun","08122497051",data.nukabcirebon@gmail.com,"",3209200,86,8,,"2021-07-30 07:15:56","2021-07-30 07:15:56",-6.606007592271248,"108.39551343620357"
247,MWCNU BEBER,"Desa Beber, Beber","081214169326",data.nukabcirebon@gmail.com,"",3209100,86,8,,"2021-07-30 07:28:14","2021-07-30 07:28:14",-6.815771968714303,"108.51658111643582"
248,MWCNU CILEDUG,"PP Al Ma'arif Desa Jatiseeng, Ciledug","081395777606",data.nukabcirebon@gmail.com,"",3209020,86,8,,"2021-07-30 08:40:56","2021-07-30 08:40:56",-6.903710074109676,"108.73958086785261"
249,MWCNU DEPOK,PP Sabilulmuttaqin Desa Warugede,"081313022022",data.nukabcirebon@gmail.com,"",3209141,86,8,,"2021-07-30 09:21:01","2021-07-30 09:21:01",-6.748124459470906,"108.42420840832695"
250,MWC NU KECAMATAN CISURUPAN ,Kp. Pasir Pari Desa. Balewangi Kecamatan Cisurupan Kabupaten Garut Provinsi Jawa Barat,"082121686607",mwcnucisurupangarut@gmail.com,-,3205160,89,23,,"2021-08-02 14:18:22","2021-08-02 14:18:22","-7.303791613593914, 107.7935620468494","-7.303791613593914, 107.7935620468494"
257,MWC NU TEGALWARU ,Kp.naringgul Rt 008 Rw 004 Desa Kutalanggeung ,"085774635574",-,-,3215011,73,15,15,"2021-08-04 09:18:48","2021-08-04 09:37:21","7.3439653","107.1806292"
258,MWC NU CIBUAYA ,Kp.Katileung Rt 04 Rw 04 Kec.Cibuaya Kab. Karawang ,"082122805566",hazziedhany999@gmail.com,-,3215170,73,15,15,"2021-08-04 10:08:22","2021-08-04 10:58:20","6.029481","107.2433193"
259,MWC NU KARAWANG BARAT ,Jln.Parahiyangan Rt 05 Rw 10 Kel. Adiarsa Barat ,"085716371083",mwcnukarawangbarat@gmail.com,-,3215113,73,15,15,"2021-08-04 10:26:51","2021-08-09 06:53:10","6.3180134","107.3064449"
260,MWC NU KUTAWALUYA ,Dusun Kedungmundu Rt 011 Rw 004 Desa Kutakarya ,"085691701761",-,-,3215140,73,15,15,"2021-08-04 12:00:03","2021-08-04 12:00:12","6.5906678","107.768447"
261,MWCNU DUKUPUNTANG,"Desa Sindangjawa, Dukupuntang","081324300678",data.nukabcirebon@gmail.com,"",3209121,86,8,,"2021-08-04 14:44:29","2021-08-04 14:44:29",-6.767583043148928,"108.41906865065526"
262,MWCNU BABAKAN,"Desa Pakusamben, Babakan","082127257840",data.nukabcirebon@gmail.com,"",3209040,86,8,8,"2021-08-04 15:00:55","2021-08-04 15:54:41",-6.858423374020589,"108.721948101202"
263,MWCNU GEGESIK,"Desa Jagapura, Gegesik","081802389027",data.nukabcirebon@gmail.com,"",3209230,86,8,,"2021-08-04 15:14:48","2021-08-04 15:14:48",-6.532674319264755,"108.42433515759015"
264,MWCNU GEMPOL,"Desa Winong, Gempol","081321466545",data.nukabcirebon@gmail.com,"",3209211,86,8,8,"2021-08-04 15:27:41","2021-08-04 15:33:27",-6.664223707006822,"108.41432012966179"
265,MWCNU GREGED,"Desa Gemulung Lebak, Greged","087824195484",data.nukabcirebon@gmail.com,nucirebon.or.id,3209101,86,8,,"2021-08-04 15:56:46","2021-08-04 15:56:46",-6.803306870359873,"108.57036874815637"
266,MWCNU JAMBLANG,Blok Kertayasa Desa Wangunharja,"081312309993",data.nukabcirebon@gmail.com,nucirebon.or.id,3209191,86,8,,"2021-08-05 02:42:10","2021-08-05 02:42:10",-6.672825815055957,"108.46650863646838"
267,MWCNU KALIWEDI,"Desa Wargabinangun, Kaliwedi","08122140568",data.nukabcirebon@gmail.com,nucirebon.or.id,3209231,86,8,,"2021-08-05 02:49:26","2021-08-05 02:49:26",-6.572652559688849,"108.39984322327479"
268,MWCNU KLANGENAN,"Desa Klangenan, Klangenan","085763807600",mwcnuklangenan99@gmail.com,nucirebon.or.id,3209190,86,8,,"2021-08-05 03:01:35","2021-08-05 03:01:35",-6.636035802765186,"108.45874925912348"
269,MWCNU LOSARI,"Desa Panggangsari, Losari","082324278640",mwcnulosari@gmail.com,nucirebon.or.id,3209030,86,8,,"2021-08-05 03:18:06","2021-08-05 03:18:06",-6.832052711498522,"108.80229599695768"
270,MWCNU PABEDILAN,"Desa Kalimukti, Pabedilan","082217365858",mwcnupabedilana26@gmail.com,nucirebon.or.id,3209031,86,8,,"2021-08-05 03:58:13","2021-08-05 03:58:13",-6.8408224767305175,"108.77383852883017"
271,MWC NU KECAMATAN LEUWIGOONG,JL. Raya Cikoang Kp. KP. Cikoang Kulon RT/RW 001/013 Desa Sindangsari Kecamatan Leuwigoong Kabupaten Garut Provinsi Jawa Barat,"085846260312",mwcnuleuwigoong696@gmail.com,-,3205250,89,23,23,"2021-08-05 10:15:45","2021-09-20 16:05:31",-7.100578550384898,"107.9521603497913"
272,MWC NU CILEBAR ,Dusun Kosambibatu I  Rt 002 Rw 001 Desa Kosambibatu ,"085817515871",ibnuambari578@gmail.com,-,3215161,73,15,,"2021-08-05 10:53:07","2021-08-05 10:53:07","",""
273,MWCNU PALIMANAN,"Desa Kepuh, Palimanan","083824972075",mwcnupalimanan@gmail.com,nucirebon.or.id,,86,8,,"2021-08-06 07:18:22","2021-08-06 07:18:22",-6.734479464006163,"108.41374107170832"
274,MWCNU PANGENAN,"Desa Bendungan, Pangenan","081324586096",mwnupangenan@gmail.com,nucirebon.or.id,3209081,86,8,,"2021-08-06 07:33:01","2021-08-06 07:33:01",-6.791779690245882,"108.67498921168527"
275,MWCNU PANGURAGAN,"Desa Panguragan, Panguragan","08122359749",mwcnupanguragan99@gmail.com,nucirebon.or.id,3209201,86,8,,"2021-08-06 07:48:27","2021-08-06 07:48:27",-6.610368040243178,"108.45683936703006"
276,MWCNU PASALEMAN,"Desa Cilengkrang Girang, Pasaleman","085220398411",mwcnupasaleman@gmail.com,nucirebon.or.id,3209011,86,8,,"2021-08-06 07:59:00","2021-08-06 07:59:00",-6.912900099865124,"108.74090752295345"
277,MWCNU PLERED,"Desa Trusmi Kulon, Plered","082128840131",mwcnuplered1926@gmail.com,nucirebon.or.id,3209151,86,8,,"2021-08-06 08:09:15","2021-08-06 08:09:15",-6.694639243656023,"108.50949656469069"
278,MWCNU PLUMBON,Desa Pamijahan Kec. Plumbon,"082240362440",mwcnuplumbon@gmail.com,nucirebon.or.id,3209140,86,8,,"2021-08-07 06:01:33","2021-08-07 06:01:33",-6.7187414737736555,"108.4676717458727"
279,MWCNU SUMBER,"Kelurahan Perbutulan, Sumber","082324541809",mwcnusumber99@gmail.com,nucirebon.or.id,3209120,86,8,,"2021-08-07 06:24:15","2021-08-07 06:24:15",-6.742756618954638,"108.48802751182151"
280,MWCNU SURANENGGALA,"Desa Suraneggala Lor, Suranenggala","081320742491",mwcnusuranenggala123@gmail.com,nucirebon.or.id,3209181,86,8,,"2021-08-07 06:38:04","2021-08-07 06:38:04",-6.607349978496754,"108.53216364439479"
281,MWVNU SUSUKAN,"Desa Bojongkulon, Susukan","085295626232",mwcnususukan@gmail.com,nucirebon.or.id,3209220,86,8,,"2021-08-07 06:55:51","2021-08-07 06:55:51",-6.628530990480104,"108.3813698113576"
282,MWCNU TENGAH TANI,Blok Karadenan Desa Kalibaru,"085353533912",mwcnutengahtani@gmail.com,nucirebon.or.id,3209161,86,8,,"2021-08-07 07:23:44","2021-08-07 07:23:44",-6.687604411085339,"108.52006982984929"
283,MWCNU WALED,"PP Miftahul Ulum Desa Ambit, Waled","082318427404",mwcnuwaled@gmail.com,nucirebon.or.id,3209010,86,8,,"2021-08-07 07:42:18","2021-08-07 07:42:18",-6.917300578752368,"108.68493348319669"
284,MWCNU WERU,PP Al Idrisiyyah Desa Megu Gede,"085321310005",mwcnuweru@gmail.com,nucirebon.or.id,3209150,86,8,,"2021-08-07 08:09:16","2021-08-07 08:09:16",-6.726228255479756,"108.50290371203073"
285,MWC NU KECAMATAN LELES,Kp. Cicapar Kidul Rt 02 Rw 05 Desa Leles Kecamatan Leles Kabupaten Garut Provinsi Jawa Barat,"085317660831",mwcnukeclelesgarut@gmail.com,-,3205240,89,23,23,"2021-08-08 12:31:57","2021-09-20 16:06:53",-7.108770528549156,"107.90122732759228"
286,MWC NU CIPATUJAH,"Jln. Raya Cipatujah, GDI Cipatujah, Desa/Kec. Cipatujah Kab. Tasikmalaya 46189","085223889998",adeiwan322@gmail.com,https://medianu.or.id/,3206010,64,24,24,"2021-08-10 09:55:42","2021-09-15 14:18:15","",""
288,MWCNU SEDONG,"Desa Sedong Lor, Sedong","082319564576",mwcnusedong@gmail.com,nucirebon.or.id,3209070,86,8,,"2021-08-10 15:43:34","2021-08-10 15:43:34",-6.862286819876566,"108.57543448159522"
289,MWC NU CIAMPEL,Dusun II Kp Waringin Rt 020 /008,"082296184990",-,-,3215020,73,15,,"2021-08-10 16:55:17","2021-08-10 16:55:17",-,-
290,MWC NU CILAMAYA WETAN, Jln Kosambileumpeung Desa Sukamulya,"0816414349",-,-,3215081,73,15,15,"2021-08-10 17:43:14","2021-08-10 17:55:01","",""
291,MWC NU TIRTAJAYA,Dusun Malaka II Rt 008 Rw 008 Desa Pisangsambo ,"0",-,-,3215180,73,15,15,"2021-08-10 18:24:09","2021-08-11 03:40:58","",""
293,MWC NU JAYAKERTA ,Dusun Sukajaya Rt 008 Rw 012 Desa Kemiri ,"0",-,-,3215151,73,15,15,"2021-08-11 02:39:23","2021-08-11 02:55:47",-,-
294,MWC NU PURWASARI ,Jl. Bina Karya Kalijurang Rt.001 Rw.002 Desa Purwasari,"081313800336","","",3215051,73,15,15,"2021-08-11 02:58:57","2021-08-23 03:31:10",-6.392990904571278,"107.40878163878948"
295,MWC NU TELAGASARI ,Dusun Pasirtalaga III Rt 020 Rw 006 Desa Telagasari ,"087828255609",-,"",3215100,73,15,15,"2021-08-11 03:17:36","2021-08-23 03:30:39","",""
296,MWC NU KARAWANG TIMUR ,Jln Suhud Hidayat Sukamaju Rt.011 Rw.003 Desa Warungbambu ,"08575990092",-,-,3215112,73,15,15,"2021-08-11 03:47:23","2021-08-11 11:56:16",-6.324470671192179,"107.32563717606574"
297,MWC NU BATUJAYA ,"PPTQ Daarul Huffazh, Dusun Telukampel Rt.002 Rw.001 Desa Karyamakmur ","085810533393","","",3215190,73,15,15,"2021-08-11 06:33:25","2021-08-23 03:35:21",-6.10017462119527,"107.23389717685971"
298,MWC NU TELUKJAMBE TIMUR ,Jl. Raya Peruri Rt.002 Rw.003 Dusun Pejaten Desa Pinayungan,"088211467824",-,-,3215031,73,15,15,"2021-08-11 06:39:48","2021-08-14 06:05:31",-6.345759875114671,"107.30371158111828"
299,MWC NU TELUKJAMBE BARAT ,Jln Raya Badami -Loji Dusun Pasirjengkol Rt 07 Rw 03 Desa Karangmulya ,"085692070495",-,-,3215032,73,15,15,"2021-08-11 07:05:41","2021-08-14 06:08:25","",""
300,MWC NU CIKAMPEK,PP Al- Hasan Nahdlatul Ulama Jl. Jend. Ahmad Yani Dsn. Kamijaya Rt.001 Rw.001 Desa Dawuan Barat,"085215645114","","",3215050,73,15,15,"2021-08-11 07:34:00","2021-08-14 06:04:53",-6.390106078782667,"107.42594112417338"
301,MWC NU LEMAHABANG,Dusun Buahaseum 2 Rt.001 Rw.004 Desa Karyamukti,"085770903336","","",3215090,73,15,15,"2021-08-11 07:39:11","2021-08-23 03:33:12",-6.287001509580599,"107.45570976577625"
302,MWC NU RAWAMERTA,Dusun Rawasari Rt.007 Rw.003 Desa Gombongsari,"08561625984","","",3215120,73,15,15,"2021-08-11 07:42:26","2021-08-14 06:09:07",-6.220851596432079,"107.37945309890816"
303,MWC NU PANGKALAN,PP Darul Ulum Kp. Bakan Pojok Rt.001 Rw.003 Desa Cintaasih ,"085770967145","","",3215010,73,15,15,"2021-08-11 07:59:40","2021-08-23 03:31:41",-6.500571690906165,"107.21580767260599"
304,MWC NU JATISARI,"Jl. Raya jatisari dusun sukamaju II rt 001, rw003 Desa Telarsari","081381398297","","",3215070,73,15,15,"2021-08-11 08:04:33","2021-08-23 03:34:32",-6.3722685695081465,"107.52065913756432"
305,MWC NU MAJALAYA,Kp. Belendung Rt.017 Rw.007 Desa Lemahmulya,"081281867285","","",3215111,73,15,15,"2021-08-11 08:37:45","2021-08-23 03:32:08",-6.333316386071816,"107.3820494897126"
306,MWC NU KOTABARU,Gg. Citra Kp. Ciselang Rt.002 Rw.010 Desa Cikampek Utara,"081295473041","","",3215072,73,15,15,"2021-08-11 09:11:23","2021-08-23 03:33:47",-6.3828861592898605,"107.46743693940739"
308,MWC NU TEMPURAN ,Jl. Pancakarya Rt.012 Rw.002 Desa Pancakarya,"0",-,-,3215130,73,15,15,"2021-08-11 09:29:45","2021-08-12 04:16:46",-6.193902007551304,"107.43563545819592"
309,MWC NU CILAMAYA KULON ,Jl. Raya Singaperbangsa Dusun Krajan Barat Rt.006 Rw.002 Desa Pasirukem,"0","","",3215082,73,15,15,"2021-08-11 09:54:32","2021-08-12 06:00:26",-6.218546429657463,"107.53247672729513"
310,MWC NU RENGASDENGKLOK ,Dusun Sinarsari Rt 008 Rw 002 Desa Kalangsari ,"081513728833",-,-,3215150,73,15,,"2021-08-12 01:58:50","2021-08-12 01:58:50",-,-
311,MWC NU BANYUSARI,Kp. Jungklang Rt.001 Rw.008 Desa Jayamukti ,"085659944490","","",3215071,73,15,15,"2021-08-12 05:17:32","2021-08-23 03:36:02",-6.315622787767422,"107.56301562819195"
312,MWCNU GEBANG,"Gebang Udik, Kec. Gebang, Cirebon, Jawa Barat 45191","08156439773",mwcnugebang@gmail.com,nucirebon.or.id,3209041,86,8,,"2021-08-13 06:03:27","2021-08-13 06:03:27",-6.8226505345115935,"108.72631239784441"
313,MWC  NU KLARI,Ponpes Nurul Falah Jln.Kosambi Curug Kp.Babakan Ngantai Rt 01 Rw 01 Desa Duren Kec.Klari ,"081220722938","","",3215040,73,15,15,"2021-08-14 02:26:33","2021-08-23 03:36:35","",""
314,MWCNU Gununghalu,"","","","",3217020,75,20,,"2021-08-16 04:00:14","2021-08-16 04:00:14","",""
315,MWCNU Sindangkerta,"","","","",3217030,75,20,,"2021-08-16 04:00:40","2021-08-16 04:00:40","",""
316,MWCNU Parongpong,"","",mwcnuparongpong510@gmail.com,"",3217110,75,20,20,"2021-08-16 04:01:10","2021-08-18 16:18:42","",""
317,MWCNU Rongga,"","","","",3217010,75,20,,"2021-08-16 04:59:55","2021-08-16 04:59:55","",""
318,MWCNU Cipongkor,PPS. AL HIKMAH KP. LEMBUR SAWAH RT 01 RW 04 Desa Neglasari Kec. Cipongkor Kab. Bandung Barat,"",mwcnucipongkor@gmail.com,"",3217060,75,20,20,"2021-08-16 05:04:11","2021-09-06 15:50:16","",""
319,MWCNU Cililin,"","","","",3217040,75,20,,"2021-08-16 05:04:41","2021-08-16 05:04:41","",""
320,MWCNU Cihampelas," Jl. Raya Cihampelas No.45, Desa Cihampelas, Kec. Cihampelas, Kabupaten Bandung Barat, Jawa Barat 40562","08231777936",mwcnucihampelas@gmail.com,"",3217050,75,20,20,"2021-08-16 05:05:13","2021-08-19 02:40:38","",""
321,MWCNU Batujajar,"","","","",3217070,75,20,,"2021-08-16 05:05:44","2021-08-16 05:05:44","",""
322,MWCNU Padalarang,"ponpes al muniriah desa kertajaya, kecamatan padalarang kabupaten bandung barat","","","",3217090,75,20,20,"2021-08-16 05:06:06","2021-09-07 03:14:39","",""
323,MWCNU Ngamprah,Jl. Babakan Cianjur RT 03/10 Ds. Gadobangkong Kec.  Ngamprah,"085294975843",yaspikhmardliyah@gmail.com,"",3217100,75,20,20,"2021-08-16 05:06:25","2021-08-31 04:44:51","",""
324,MWCNU Saguling,"","","","",3217071,75,20,,"2021-08-16 05:06:46","2021-08-16 05:06:46","",""
325,MWCNU Lembang,Pontren Asyifa. Jl. Jeruk RW 08 Desa Lembang Kecamatan Lembang Kabupaten Bandung Barat,"0811246493","","",3217120,75,20,20,"2021-08-16 05:07:11","2021-08-18 17:05:20",-682320486,"1076238111"
326,MWC NU KECAMATAN SELAAWI,Jalan Raya Selaawi Kp.  Selawi RT/RW  03/01 Desa/Kel  Selaawi Kecamatan  Selaawi Kabupaten Garut,"081292730991",mwcnuselaawi@gmail.com,mwcnuselaawi.blogspot.com,3205300,89,23,,"2021-08-16 08:22:02","2021-08-16 08:22:02","-7.011526854724441, 108.0176168329334","-7.011526854724441, 108.0176168329334"
327,CIBADAK,sekarwangi,"","","",3202210,60,5,5,"2021-08-18 07:37:26","2021-08-18 14:58:25","",""
328,CICANTAYAN,jln. salakopi rt.03/04 des. lembursawah kec. cantayan,"085724833262","","",3202211,60,5,5,"2021-08-18 07:40:49","2021-08-18 14:55:33","",""
329,CARINGIN,Kp. Talaga hilir Desa. Talaga Kec. Caringin Kab. Sukabumi,"085720462003","","",3202212,60,5,5,"2021-08-18 07:43:39","2021-08-18 15:28:26","",""
330,CIKEMBAR,kp. bobojong desa bojong kec cikembar,"","","",3202140,60,5,5,"2021-08-18 07:44:54","2021-08-18 14:57:08","",""
331,NAGRAK,kp. cireundeu rt.04/08 desa darmareja kec. nagrak,"","","",3202220,60,5,5,"2021-08-18 07:46:33","2021-08-18 15:02:55","",""
332,CIKIDANG,kp. cikidang desa cikidang kec. cikidang,"","","",3202280,60,5,5,"2021-08-18 07:47:13","2021-08-18 15:03:55","",""
333,CISAAT,kp. cikaroya rt 51/11 desa cibolang kaler kec. cisaat,"","","",3202200,60,5,5,"2021-08-18 07:48:24","2021-08-18 15:07:21","",""
334,KADUDAMPIT,kp. kadudampit 3/4 desa kadudampit kec. kadudampit,"","","",3202190,60,5,5,"2021-08-18 07:50:12","2021-08-18 15:29:15","",""
335,SUKABUMI,kp. parungseah rt. 01/03 desa parungseah kec. sukabumi,"","","",3202180,60,5,5,"2021-08-18 07:51:01","2021-08-18 15:31:54","",""
336,SUKARAJA,kp. cimahpar rt. 3/4 desa cimahpar kec. sukaraja,"","","",3202170,60,5,5,"2021-08-18 07:51:46","2021-08-18 15:30:59","",""
337,SUKALARANG,jl. sukalarang rt.o3/04 desa sukalarang kec. sukalarang,"","","",3202173,60,5,5,"2021-08-18 07:52:33","2021-08-18 15:31:34","",""
338,CIREUNGHAS,perum asri rt.03/09 desa cirenghas kec. cirenghas,"","","",3202172,60,5,5,"2021-08-18 07:53:48","2021-08-18 15:08:39","",""
339,GEUGEUR BITUNG,Kp. Gerbi desa gegerbitung kec. gegerbitung ,"","","",3202160,60,5,5,"2021-08-18 07:55:11","2021-08-18 14:45:22","",""
340,KEBONPEDES,kp. cikaret rt.04/02 des. sasagaran kec. kebonpedes,"","","",3202171,60,5,5,"2021-08-18 07:56:20","2021-08-18 15:34:57","",""
341,GUNUNGGURUH,kp. gunungguruh desa gunungguruh kec. gunungguruh,"","","",3202201,60,5,5,"2021-08-18 07:57:28","2021-08-18 15:39:30","",""
342,PARUNGKUDA,kp. cioray desa parungkuda kec. parungkuda,"","","",3202260,60,5,5,"2021-08-18 07:58:52","2021-08-18 15:33:00","",""
343,PARAKANSALAK,parakansalak rt.09/05 desa parakanlima kec parakansalak,"","","",3202250,60,5,5,"2021-08-18 07:59:46","2021-08-18 15:33:19","",""
344,CIDAHU,kp. cidahu rt.11/02,"","","",3202240,60,5,5,"2021-08-18 08:00:44","2021-08-18 15:39:52","",""
345,CICURUG,kp. cicurug desa. nagrog kec. cicurug,"","","",3202230,60,5,5,"2021-08-18 08:02:19","2021-08-18 15:37:53","",""
346,BOJONGGENTENG,kp. bojonglimus rt06/11,"","","",3202261,60,5,5,"2021-08-18 08:03:08","2021-08-18 15:41:05","",""
347,CIAMBAR,kp.ciambar desa ciambar kec. ciambar,"085863427211","","",3202221,60,5,5,"2021-08-18 08:05:32","2021-08-18 15:44:04","",""
348,WARUNGKIARA,kp.cilimus desa. gelarsari kec warungkiara,"","","",3202120,60,5,5,"2021-08-18 08:07:14","2021-08-18 15:29:34","",""
349,BANTARGADUNG,kp. bantargebang des. bantargadung kec. bantargadung,"","","",3202121,60,5,5,"2021-08-18 08:08:07","2021-08-18 15:44:35","",""
350,KABANDUNGAN,kp. kabandungan rt.07/12 desa kabandungan kec. kabandungan,"","","",3202300,60,5,5,"2021-08-18 08:09:26","2021-08-18 15:36:17","",""
351,SIMPENAN,kp. simpenan rt.07/20 desa simpenan kec simpenan,"","","",3202111,60,5,5,"2021-08-18 08:10:20","2021-08-18 15:32:11","",""
352,PALABUHANRATU,kp. jayanti rt. 23/01desa jayanti kec. palabuanratu,"","","",3202110,60,5,5,"2021-08-18 08:12:09","2021-08-18 15:33:43","",""
353,CISOLOK,kp. cisolok rt.13/03 desa citepus kec cisolok,"","","",3202290,60,5,5,"2021-08-18 08:13:27","2021-08-18 15:42:32","",""
354,CIKAKAK,kp. cikaka rt.03/04 des. cikakak kec cikakak,"","","",3202291,60,5,5,"2021-08-18 08:14:43","2021-08-18 15:41:27","",""
355,CIEMAS,kp. ciemas rt.09/01 des. ciemas kec. ciemas,"","","",3202010,60,5,5,"2021-08-18 08:18:02","2021-08-18 15:40:37","",""
356,WALURAN,kp. waluran rt.12/01 des. waluran kec waluran,"","","",3202021,60,5,5,"2021-08-18 08:18:50","2021-08-18 15:29:51","",""
357,JAMPANG KULON,jampangkulon rt. 15/08 desa jampangkulon kec. jampangkulon,"","","",3202040,60,5,5,"2021-08-18 08:20:04","2021-08-18 15:43:26","",""
358,KALIBUNDER,kalibunder rt.15/07 desa kalibunder kec. kalibunder,"","","",3202050,60,5,5,"2021-08-18 08:21:09","2021-08-18 15:35:37","",""
359,CIMANGGU,kp.cimanggu rt.03/07 desa cimanggu kec. cimanggu,"","","",3202041,60,5,5,"2021-08-18 08:22:23","2021-08-18 15:42:07","",""
360,CIBITUNG,kp. cibitung rt. 12/06 desa cibitung kec cibitung,"","","",3202031,60,5,5,"2021-08-18 08:24:04","2021-08-18 15:43:44","",""
361,SURADE,kp. surade rt.11/01 desa surade kec. surade,"","","",3202030,60,5,5,"2021-08-18 08:24:44","2021-08-18 15:30:40","",""
362,CIRACAP,kp. ciracap rt.14/04 des. ciracap kec. ciracap,"","","",3202020,60,5,5,"2021-08-18 08:25:41","2021-08-18 15:41:48","",""
363,NYALINDUNG,kp. nyalindung rt. 17/ 06 des. nyalindung kec. nyalindung,"","","",3202150,60,5,5,"2021-08-18 08:26:42","2021-08-18 15:34:21","",""
364,JAMPANG TENGAH,kp. jampang rt.08 des. jampang kec jampangtengah,"","","",3202130,60,5,5,"2021-08-18 08:28:08","2021-08-18 15:37:10","",""
365,PURABAYA,kp. purabaya rt.13/002 desa purabaya kec purabaya,"","","",3202131,60,5,5,"2021-08-18 08:29:02","2021-08-18 15:32:44","",""
366,SAGARANTEN,kp. cidolog rt.17/09 des. sagaranten kec. sagaranten,"","","",3202080,60,5,5,"2021-08-18 08:30:54","2021-08-18 15:32:28","",""
367,CURUGKEMBAR,kp. curugkembar rt.09/11 desa curugkembar kec curugkembar,"","","",3202082,60,5,5,"2021-08-18 08:31:54","2021-08-18 15:42:55","",""
368,CIDADAP,kp. cidadap rt.19/09 des.cidadap kec. cidadap,"","","",3202081,60,5,5,"2021-08-18 08:33:07","2021-08-18 15:38:12","",""
369,CIDOLOG,kp. cidolog rt.19/06 des. cidolog kec cidolog,"","","",3202070,60,5,5,"2021-08-18 08:33:57","2021-08-18 15:40:16","",""
370,PABUARAN,kp. pabuaran rt.07/11 desa pabuaran kec. pabuaran,"","","",3202090,60,5,5,"2021-08-18 08:37:04","2021-08-18 15:33:59","",""
371,LENGKONG,kp. lengkong rt.08/19 desa lengkong kec. lengkong,"","","",3202100,60,5,5,"2021-08-18 08:38:22","2021-08-18 15:34:40","",""
372,KALAPA NUNGGAL,kp. kalapa rt.09/11 desa nunggal kec. kalapa nunggal,"","","",3202270,60,5,5,"2021-08-18 08:45:55","2021-08-18 15:35:57","",""
373,TEGAL BULEUD,kp. tegalbuleud rt. 17/09 des. tegalbuleud kec. tegalbuleud,"","","",3202060,60,5,5,"2021-08-18 08:52:32","2021-08-18 15:30:18","",""
374,MWC Ciwidey,"","","","",3204010,62,18,,"2021-08-19 03:29:30","2021-08-19 03:29:30","",""
375,MWC Rancabali,"","","","",3204011,62,18,,"2021-08-19 03:29:57","2021-08-19 03:29:57","",""
376,MWC Pasirjambu,"","","","",3204020,62,18,,"2021-08-19 03:30:19","2021-08-19 03:30:19","",""
377,MWC Cimaung,"","","","",3204030,62,18,,"2021-08-19 03:30:41","2021-08-19 03:30:41","",""
378,MWC Pangalengan,"","","","",3204040,62,18,,"2021-08-19 03:31:07","2021-08-19 03:31:07","",""
379,MWC Kertasari,"","","","",3204050,62,18,,"2021-08-19 03:31:25","2021-08-19 03:31:25","",""
380,MWC Pacet,"","","","",3204060,62,18,,"2021-08-19 03:31:44","2021-08-19 03:31:44","",""
381,MWC Ibun,"","","","",3204070,62,18,,"2021-08-19 03:32:00","2021-08-19 03:32:00","",""
382,MWC Paseh,"","","","",3204080,62,18,,"2021-08-19 03:32:21","2021-08-19 03:32:21","",""
383,MWC Cikancung,"","","","",3204090,62,18,,"2021-08-19 03:32:42","2021-08-19 03:32:42","",""
384,MWC Nagreg,"","","","",3204101,62,18,,"2021-08-19 03:33:02","2021-08-19 03:33:02","",""
385,MWC Rancaekek,"","","","",3204110,62,18,,"2021-08-19 03:33:23","2021-08-19 03:33:23","",""
386,MWC Majalaya,"","","","",3204120,62,18,,"2021-08-19 03:33:44","2021-08-19 03:33:44","",""
387,MWC Solokanjeruk,"","","","",3204121,62,18,,"2021-08-19 03:34:03","2021-08-19 03:34:03","",""
388,MWC Ciparay,"","","","",3204130,62,18,,"2021-08-19 03:34:22","2021-08-19 03:34:22","",""
389,MWC Baleendah,"","","","",3204140,62,18,,"2021-08-19 03:34:45","2021-08-19 03:34:45","",""
390,MWC Arjasari,"","","","",3204150,62,18,,"2021-08-19 03:35:07","2021-08-19 03:35:07","",""
391,MWC Banjaran,"","","","",3204160,62,18,,"2021-08-19 03:35:25","2021-08-19 03:35:25","",""
392,MWC Cangkuang,"","","","",3204161,62,18,,"2021-08-19 03:35:47","2021-08-19 03:35:47","",""
393,MWC Pameungpeuk,"","","","",3204170,62,18,,"2021-08-19 03:36:10","2021-08-19 03:36:10","",""
394,MWC Katapang,"","","","",3204180,62,18,,"2021-08-19 03:36:30","2021-08-19 03:36:30","",""
395,MWC Soreang,"","","","",3204190,62,18,,"2021-08-19 03:36:47","2021-08-19 03:36:47","",""
396,MWC Kutawaringin,"","","","",3204191,62,18,,"2021-08-19 03:37:08","2021-08-19 03:37:08","",""
397,MWC Margaasih,"","","","",3204250,62,18,,"2021-08-19 03:37:28","2021-08-19 03:37:28","",""
398,MWC Margahayu,"","","","",3204260,62,18,,"2021-08-19 03:37:46","2021-08-19 03:37:46","",""
399,MWC Dayeuhkolot,"","","","",3204270,62,18,,"2021-08-19 03:38:05","2021-08-19 03:38:05","",""
400,MWC Bojongsoang,"","","","",3204280,62,18,,"2021-08-19 03:38:23","2021-08-19 03:38:23","",""
401,MWC Cileunyi,"","","","",3204290,62,18,,"2021-08-19 03:38:42","2021-08-19 03:38:42","",""
402,MWC Cilengkrang,"","","","",3204300,62,18,,"2021-08-19 03:38:59","2021-08-19 03:38:59","",""
403,Mwc Cimenyan,"","","","",3204310,62,18,,"2021-08-19 03:39:16","2021-08-19 03:39:16","",""
404,MWCNU MUNDU,"PP Brata Kelana Desa Mundu Pesisir, Mundu","085224949423",mwcnumundu98@gmail.com,nucirebon.or.id,3209090,86,8,,"2021-08-19 04:22:39","2021-08-19 04:22:39",-6.756703211273615,"108.59311148504699"
405,MWC NU Ciawigebang,"","","","",3208100,92,10,,"2021-08-19 08:36:56","2021-08-19 08:36:56","",""
406,MWC NU Cibeureum,"","","","",3208071,92,10,,"2021-08-19 08:38:00","2021-08-19 08:38:00","",""
407,MWC NU Cibingbin,"","","","",3208070,92,10,,"2021-08-19 08:40:10","2021-08-19 08:40:10","",""
408,MWC NU Cidahu,"","","","",3208090,92,10,,"2021-08-19 08:41:06","2021-08-19 08:41:06","",""
409,MWC NU Cigandamekar,"","","","",3208171,92,10,,"2021-08-19 08:42:06","2021-08-19 08:42:06","",""
410,MWC NU Cigugur,"","","","",3208140,92,10,,"2021-08-19 08:42:51","2021-08-19 08:42:51","",""
411,MWC NU Cilebak,"","","","",3208051,92,10,,"2021-08-19 08:43:35","2021-08-19 08:43:35","",""
412,MWC NU Cilimus,"","","","",3208170,92,10,,"2021-08-19 08:44:19","2021-08-19 08:44:19","",""
413,MWC NU Cimahi,"","","","",3208081,92,10,,"2021-08-19 08:45:04","2021-08-19 08:45:04","",""
414,MWC NU Ciniru,"","","","",3208030,92,10,,"2021-08-19 08:45:46","2021-08-19 08:45:46","",""
415,MWC NU Cipicung,"","","","",3208101,92,10,,"2021-08-19 08:46:41","2021-08-19 08:46:41","",""
416,MWC NU Ciwaru,"","","","",3208060,92,10,,"2021-08-19 08:47:30","2021-08-19 08:47:30","",""
417,MWC NU Darma,"","","","",3208010,92,10,,"2021-08-19 08:48:16","2021-08-19 08:48:16","",""
418,MWC NU Garawangi,"","","","",3208120,92,10,,"2021-08-19 08:49:07","2021-08-19 08:49:07","",""
419,MWC NU Hantara,"","","","",3208031,92,10,,"2021-08-19 08:49:50","2021-08-19 08:49:50","",""
420,MWC NU Jalaksana,"","","","",3208160,92,10,,"2021-08-19 08:50:30","2021-08-19 08:50:30","",""
421,MWC NU Japara,"","","","",3208161,92,10,,"2021-08-19 08:51:09","2021-08-19 08:51:09","",""
422,MWC NU Kadugede,"","","","",3208020,92,10,,"2021-08-19 08:51:49","2021-08-19 08:51:49","",""
423,MWC NU Kalimanggis,"","","","",3208091,92,10,,"2021-08-19 08:52:36","2021-08-19 08:52:36","",""
424,MWC NU Karangkancana,"","","","",3208061,92,10,,"2021-08-19 08:53:24","2021-08-19 08:53:24","",""
425,MWC NU Kramatmulya,"","","","",3208150,92,10,,"2021-08-19 08:55:19","2021-08-19 08:55:19","",""
426,MWC NU Kuningan,"","","","",3208130,92,10,,"2021-08-19 08:55:59","2021-08-19 08:55:59","",""
427,MWC NU Lebakwangi,"","","","",3208110,92,10,,"2021-08-19 08:58:44","2021-08-19 08:58:44","",""
428,MWC NU Luragung,"","","","",3208080,92,10,,"2021-08-19 08:59:31","2021-08-19 08:59:31","",""
429,MWC NU Maleber,"","","","",3208111,92,10,,"2021-08-19 09:00:09","2021-08-19 09:00:09","",""
430,MWC NU Mandirancan,"","","","",3208180,92,10,,"2021-08-19 09:00:51","2021-08-19 09:00:51","",""
431,MWC NU Nusaherang,"","","","",3208021,92,10,,"2021-08-19 09:01:37","2021-08-19 09:01:37","",""
432,MWC NU Pancalang,"","","","",3208181,92,10,,"2021-08-19 09:02:18","2021-08-19 09:02:18","",""
433,MWC NU Pasawahan,"","","","",3208190,92,10,,"2021-08-19 09:03:09","2021-08-19 09:03:09","",""
434,MWC NU Selajambe,"","","","",3208040,92,10,,"2021-08-19 09:03:48","2021-08-19 09:03:48","",""
435,MWC NU Sindangagung,"","","","",3208121,92,10,,"2021-08-19 09:04:24","2021-08-19 09:04:24","",""
436,MWC NU Subang,"","","","",3208050,92,10,,"2021-08-19 09:05:01","2021-08-19 09:05:01","",""
437,MWC HARJAMUKTI,"HARJAMUKTI, KOTA CIREBON","","","",3274010,80,9,,"2021-08-21 18:42:38","2021-08-21 18:42:38","",""
438,MWC KESAMBI,"KESAMBI, KOTA CIREBON","","","",3274040,80,9,,"2021-08-21 18:58:39","2021-08-21 18:58:39","",""
439,MWC PEKALIPAN,"PEKALIPAN, KOTA CIREBON","","","",3274030,80,9,,"2021-08-21 19:09:06","2021-08-21 19:09:06","",""
440,MWC LEMAHWUNGKUK,"LEMAHWUNGKUK, KOTA CIREBON","","","",3274020,80,9,,"2021-08-21 19:30:16","2021-08-21 19:30:16","",""
441,MWC KEJAKSAN,"KEJAKSAN, KOTA CIREBON","","","",3274050,80,9,,"2021-08-21 20:06:48","2021-08-21 20:06:48","",""
442,MWC NU Purbaratu,kp ciwaasmandi Kel.Sukajaya Kec. Purbaratu ,"1",Mwcnupurbaratu@gmail.com,"",3278031,84,25,25,"2021-08-24 04:16:45","2021-08-24 04:28:26","",""
443,MWC NU Indihiang,jln. ibrahim Adjie No 153,"1",mwcnuindihiang@gmail.com,"",3278070,84,25,25,"2021-08-24 04:32:09","2021-08-24 04:37:49","",""
444,MWC NU TAWANG ,Jln Tentara pelajar no 41 Tawang ,"1",mwcnutawang@gmail.com,"",3278040,84,25,25,"2021-08-24 04:41:38","2021-08-27 06:22:14","",""
445,MWC NU CIHIDEUNG,jln Argasari Kel. Argasari Kec. Cihideung ,"1",mwcnucihideung@gmail.com,"",3278050,84,25,25,"2021-08-24 04:47:06","2021-08-24 04:52:14","",""
446,MWC NU Mangkubumi,ponpes urwatul wusto kel.sambong pari mangkubumi,"1","","",3278060,84,25,25,"2021-08-24 05:01:11","2021-08-27 08:42:00","",""
447,MWC NU Bungursari,ponpes Al khoeriyah bantar bungursari ,"1","","",3278071,84,25,25,"2021-08-24 05:04:44","2021-08-28 05:21:45","",""
448,MWC NU KECAMATAN CISEWU,Ponpes Raudlathul Ulum Jln. Terusan SMA Kp. Babakan Barokah RT/RW 01/02 Desa/Kel Cisewu Kecamatan Cisewu Kabupaten  Garut,"082218886056",nucisewu@gmail.com, https://heylink.me/mwcnucisewu,3205010,89,23,23,"2021-08-24 09:33:41","2021-08-24 09:54:43",-,-
449,MWC Majalengka,Blok Pasir Asih Rt 03 rw 10 Kelurahan Majalengka Wetan,"085224087783",fikriamiruddin@gmail.com,"",3210070,68,11,11,"2021-08-24 14:34:12","2021-08-24 14:47:26","",""
450,MWC NU Cipedes ,jl. Cikiara RT/RW 003/010 Kel. Panglayungan Kec. Cipedes,"1",mwcnucipedes@gmail.com,"",3278080,84,25,25,"2021-08-27 06:30:15","2021-08-27 06:35:27","",""
451,MWC NU Tamansari ,Kp. Salamitan RT/RW. 001/009 Kel. Setiamulya Kec. Tamansari,"1",mwcnutamansari@gmail.com,"",3278020,84,25,25,"2021-08-27 06:40:57","2021-09-09 04:45:42","",""
452,MWC NU Cibeurem,"","1",mwcnucibeurem@gmail.com,"",3278030,84,25,,"2021-08-27 06:47:34","2021-08-27 06:47:34","",""
454,MWC NU Sumedang Selatan,"","081221497896","","",3211050,69,22,,"2021-08-27 09:54:19","2021-08-27 09:54:19","",""
455,MWC NU Nanggung,Jl. Ace Tabrani Km.05 Kec. Nanggung Kab. Bogor. 16650,"081317210479",mwcnunanggung@gmail.com,http://mwcnu-cgb.blogspot.com,3201010,59,2,2,"2021-08-28 08:25:30","2021-09-11 06:21:34","6.744.429","106.803.717"
456,MWC NU Situraja,Pondok Pesantren Jumrtul Mutaqin Situraja,"081321153967","","",3211070,69,22,22,"2021-08-30 06:58:33","2021-09-08 11:16:39","",""
457,MWC NU Citeureup,Jl. Sabilillah Kp Pasir Angin RT 01 RW 08 Desa Tajur,"087870828088",robysamsitea04@gmail.com,https://instagram.com/mwcnu.citeureup?utm_medium=copy_link,3201200,59,2,2,"2021-09-01 06:31:51","2021-09-01 06:32:36","-6,515,881","106,904,597"
458,MWC NU Megamendung,Komplek Ponpes Sindang Leret Jl. Cikopo Selatan Kp. Pasir Muncang Rt. 01 Rw. 01 Desa Sukamanah,"085774328060",rohmat.mubarok@yahoo.com,MWC NU Megamendung ,3201120,59,2,,"2021-09-01 06:34:31","2021-09-01 06:34:31","-668,585","10,690,132"
459,MWC NU GUNUNG SINDUR,Jl. Atma Asnawi RT.001 RW.004 Kp. Cimangir Desa Gunung Sindur Kecamatan Gunung Sindur Kabupaten Bogor,"081290429054",aw_ja054@yahoo.com,"",3201250,59,2,,"2021-09-01 06:39:52","2021-09-01 06:39:52","-6,384,296","106,673,722"
460,MWCNU Sukajaya,Ki Cibuluh RT. 02/04 Jalan Cigudeg Kiarapandak,"08569811161",Neng Toyyibah@gmail.com,"",3201271,59,2,,"2021-09-01 06:55:17","2021-09-01 06:55:17","6,193,125","106,821,810"
461,MWCNU Klapanunggal,Kp. Klapanunggal Rt.02 RW. 01 Ds. Klapanunggal Kec. Klapanunggal,"085219605625",msyubbanulyaum@gmail.com,Twitter@DaniHam45046220,3201181,59,2,,"2021-09-01 06:59:10","2021-09-01 06:59:10", -6.460353 LS,"106.94585"
462,MWCNU Rumpin,Pondpes. Raudlatussyaafi'iyyah kp.temanggungan rumpin,"085691262011",mwcnurumpin2015@gmail.com,http://mwcnurumpin.or.id,3201260,59,2,,"2021-09-01 07:00:43","2021-09-01 07:00:43","-6,393,339","106,641,435"
463,MWCNU SUKARAJA,Kp. Sukaraja RT 03/05 Desa Cikeas Kecamatan Sukaraja,"081315847472",yahyahalim09@gmail.com,MWCNUSUKARAJA,3201130,59,2,2,"2021-09-01 07:02:22","2021-09-01 11:09:37","-6,588,540","106,841,829"
464,MWCNU Ciomas,Jln Raya Kreteg No.55 Pagelaran Ciomas Bogor,"085717596969",ciomasmwcnu@gmail.com,"",3201070,59,2,,"2021-09-01 07:03:56","2021-09-01 07:03:56","-6,601,129,025,799,750.00","10,675,966,612,813,600"
465,MWC Rajagaluh,Blok Kamis RT 05/02 Desa Kumbung Kecamatan Rajagaluh Kabupaten Majalengka 45472,"081324390022",mwcnurajagaluh@gmail.com,https://nurajagaluh.or.id,3210100,68,11,,"2021-09-01 07:35:18","2021-09-01 07:35:18",-6.801038143980064,"108.34708093380235"
466,MWC NU KECAMATAN KADUNGORA,"Jl. Raya Baru , Kp. Belentuk RT/RW 01/03 Desa/Kel  Cisaat Kecamatan  Kadungora Kabupaten  Garut","085295040005",mwcnukadungora@gmail.com,-,3205280,89,23,,"2021-09-03 08:41:05","2021-09-03 08:41:05","-7.085557003812855, 107.89443542433774","-7.085557003812855, 107.89443542433774"
467,MWC Bogor Timur,"","","","",3271020,77,3,,"2021-09-04 04:50:23","2021-09-04 04:50:23","",""
468,MWC Bogor Tengah,"","","","",3271040,77,3,,"2021-09-04 04:50:45","2021-09-04 04:50:45","",""
469,MWC Tanah Sareal,"","","","",3271060,77,3,,"2021-09-04 04:51:08","2021-09-04 04:51:08","",""
470,MWC NU KECAMATAN SUCINARAJA,Kp. Tegalpanjang RT 01 RW 02 desa tegalpanjang kecamatan sucinaraja kab garut,"085156408280",dadangridwan236@gmail.com,-,3205211,89,23,,"2021-09-06 03:29:38","2021-09-06 03:29:38","-7.188773293016367, 107.9857933184858","-7.188773293016367, 107.9857933184858"
471,MWC NU KECAMATAN BUNGBULANG,"Kp. Rajawali 001/009 Bungbulang Kecamatan Bungbulang Kabupaten  Garut
","081221016644",armannawal1981@gmail.com,-,3205030,89,23,,"2021-09-06 03:52:54","2021-09-06 03:52:54",-,-
472,MWC NU KECAMATAN SINGAJAYA,Jl. Surapati RT/RW  05/05 Kp/Kelurahan  Empang Desa  Cigintung Kecamatan  Singajaya Kabupaten  Garut Provinsi  Jawa Barat,"081221855770",mwcnusingajaya20@gmail.com,-,3205110,89,23,23,"2021-09-06 04:44:18","2021-09-19 05:36:24",-7.478715940732862,"107.93407417207509"
473,MWC NU KECAMATAN MEKARMUKTI,"Kp. Sindang Haji 01/02 Desa. Mekarmukti Kecamatan Mekarmukti
","081323869369",Ajam50@gmail.com,-,3205031,89,23,23,"2021-09-06 09:21:49","2021-09-20 03:03:40",-7.499180827360698,"107.58441311396406"
474,MWC NU KECAMATAN MALANGBONG,Jl. Raya Barat (Bandrek-Malangbong) No. 72Kp.  Cijanur RT/RW  004/001 Desa/Kel  Sukamanah Kecamatan  Malangbong Kabupaten Garut,"081222804024",mwcnumalangbong01@gmail.com,-,3205310,89,23,23,"2021-09-06 12:11:31","2021-09-20 02:59:05",-7.061288298268547,"108.08456716792546"
475,MWC NU SINDANGWANGI,Blok Kliwon RT. 002 RW. 005 Desa Sindangwangi Kec. Sindangwangi Kab. Majalengka 45474,"081573586696","","",3210110,68,11,,"2021-09-07 01:33:22","2021-09-07 01:33:22",-6.792746058907208,"108.36983911607787"
476,MWC NU DRAMAGA,Jl. H. Ma'ruf Kp. Petir RT. 02 RW. 03 Desa Purwasari Kec. Dramaga,"081292379414",daudmuslim0702@gmail.com,ig: mwcdramaga,3201060,59,2,,"2021-09-07 09:42:10","2021-09-07 09:42:10","",""
477,MWC NU KEMANG,Jl. Raya Parung Bogor Jampang Wates Rt.001 Rw.001 Desa Jampang Kec. Kemang,"081584939199",mwcnukecamatankemang@gmail.com,"Youtube : MWC NU KECAMATAN KEMANG ,twiter,ig,fb",,59,2,,"2021-09-07 09:55:47","2021-09-07 09:55:47","",""
479,MWC NU Jonggol,Komplek masjid Raya Nuruttaqwa jonggol,"081511499886",rudibahrudin.99@gmail.com,"",,59,2,,"2021-09-07 10:06:32","2021-09-07 10:06:32",-6. 467767,"107.066.216"
480,MWC NU LEUWIMUNDING,Jl.Raya Leuwimunding Desa Leuwimunding Kec.Leuwimunding Kab.Majalengka Kode Pos 45473,"081313332928",nuleuwimunding@gmail.com,nuleuwimunding.or.id,3210120,68,11,11,"2021-09-07 14:16:27","2021-09-07 14:19:38","6â¢44'26.363""S  ","108â¢20'45.149""E"
481,MWC NU KECAMATAN CIBUGEL,"","","","",3211090,69,22,22,"2021-09-08 11:13:31","2021-09-08 11:23:25","",""
483,MWC NU KECAMATAN JATINANGOR,"","","","",3211010,69,22,22,"2021-09-08 11:24:34","2021-09-08 11:28:34","",""
484,MWC NU KECAMATAN UJUNG JAYA,"","","","",3211130,69,22,,"2021-09-08 11:55:00","2021-09-08 11:55:00","",""
485,MWC NU KECAMATAN SURIAN,"","","","",3211181,69,22,,"2021-09-08 11:58:02","2021-09-08 11:58:02","",""
486,MWC NU KECAMATAN JATIGEDE,"","","","",3211111,69,22,,"2021-09-08 12:01:33","2021-09-08 12:01:33","",""
487,MWC NU KECAMATAN CIMANGGUNG,"","","","",3211020,69,22,,"2021-09-08 12:12:43","2021-09-08 12:12:43","",""
488,MWC NU Jasinga,Jl.raya jasinga tenjo samping balai desa cikopomayak ,"081360757217",jasingamwcnu@gmail.com,Fb:MWCNU JASINGA,3201280,59,2,2,"2021-09-09 05:32:51","2021-09-09 10:59:00","S 6Â°26'58.8696""       ","E 106Â°27'42.4296"""
489,MWCNU Tanjung Sari,Kp. Karangmulya RT. 005/004 Desa Selawangi Kec. Tanjungsari Kab. Bogor,"081289227119",apangsumarna@yahoo.com,@mwcnutanjungsari (facebook),3201161,59,2,2,"2021-09-09 05:33:20","2021-09-09 13:43:04",-65.839.531,"107.096.639,17"
491,MWC NU Ciseeng,Kp. Babakan Wetan Rt 08/03 Desa Babakan Kec Ciseeng kab Bogor ,"08179001883",ahmadgoza@gmail.com,Facebook MWCNU ciseeng ,3201241,59,2,2,"2021-09-09 05:34:21","2021-09-09 12:32:47","-6,4610850","106,6999540"
492,MWC NU Ranca Bungur,Ponpes Hidayatul Mu'minin Desa Mekarsari Kec. Rancabungur Kab. Bogor,"087770140174",mwcnurancabungur99@gmail.com,www.ardalopa.my.id,3201231,59,2,2,"2021-09-09 05:35:00","2021-09-09 14:12:09",-6.514.580,"106.692.635"
493,MWC NU Tajur Halang,Komplek inkopad blok D2 No.17 RT.04/05 Desa Sasak Panjang Kecamatan Tajurhalang kabupaten Bogor,"088212848198",sihablatif3@gmail.com,Grup WA,3201221,59,2,2,"2021-09-09 05:35:27","2021-09-09 13:00:30",-642.699,"10.668.169"
494,MWC Tenjo,Ponpes Bani Harun Jln raya Tenjo desa Tenjo kecamatan Tenjo,"085773728005",anaszamzami75@gmail.com,WhatsApp,3201290,59,2,2,"2021-09-09 05:35:56","2021-09-09 13:53:37","-6Â°21'44.9496""","106Â°27'08.5176"
495,MWC NU Leuwisadeng,Kp. Jambu. Rt 01/02. Desa. Sibanteng. Kec. Leuwisadeng. Kab. Bogor,"085717610071",ahmadbaejuri07@gamil.com,WA,3201051,59,2,2,"2021-09-09 05:36:18","2021-09-09 14:11:52","6.193.125","106.821.810"
496,MWC NU Parung,Jl. Raya Parung Bogor Masjid Besar Riyadhus Sholihin Desa Parung Kec. Parung Kab. Bogor,"081283964202",parungmwcnu@gmail.com ,https://www.facebook.com/groups/313291976336973/?ref=share,3201240,59,2,2,"2021-09-09 05:36:46","2021-09-09 07:53:07",-642.239.292,"1.067.323.337"
497,MWC NU Sukamakmur,Kp cisurian rt 003/003 desa sukamakmur,"08558580019",amashilman4250@gmail.com,Whatsup,3201150,59,2,2,"2021-09-09 05:49:05","2021-09-09 14:03:28",-6. 193125,"106.821.810"
498,MWC NU Parung Panjang,Jl. Raya Cikabon Desa Cibunar Kec. Parungpanjang Kab. Bogor 16360 Jawa Barat ,"08568491071",Zaenaladnan@gmail.com,-,3201300,59,2,2,"2021-09-09 06:22:36","2021-09-15 14:53:59",-63.449.975,"160.550.375"
499,MWC NU Tamansari,JL raya CIAPUS KBN JATI KP BALEKAMBANGRT 01RW01 DESA SIRNAGALIH KEC TAMANSARI,"0895348160765",Dhesuryadi1971@gmailcom.,"",3201071,59,2,2,"2021-09-09 06:23:01","2021-09-09 12:36:23","6,639591","106,730904"
500,MWC NU Pamijahan,jalan KH Abd Hamid km 10 kp gardu raya desa cibitung wetan kec pamijahan,"08111144233",emailsayaimronrosadi@gmail.com,facebook imronrosadi,3201030,59,2,2,"2021-09-09 06:23:29","2021-09-09 13:31:02","6'41'15""5","106'39'19""E"
501,MWC NU Cisarua,Jl. Raya puncak km 83 kp sampai warunv kaleng Rt 01/03 desa tugu utara cisarua bogor,"081318866492",Muhamadjaesin@gmail.com,mwcnu cisarua,3201110,59,2,2,"2021-09-09 06:24:11","2021-09-09 07:57:17","6.683.991","106.952.746"
502,MWC NU Tenjolaya,Kp. Tapos Lebak RT 02/03 Ds. Tapos II Kec. Tenjolaya Kab. Bogor,"082116333316",Darulmakarim@gmail.com,A'Puji,3201051,59,2,2,"2021-09-09 06:25:02","2021-09-09 13:55:46",-66.269.604,"1.066.943.165"
503,MWC NU KECAMATAN PAMULIHAN,"Kp.Cilimus RT 01 RW 03 Desa.Garumukti Kecamatan.Pamulihan Kabupaten Garut
","082120285549",pamulihanmwcnu@gmail.com,-,3205040,89,23,23,"2021-09-13 09:38:08","2021-09-20 03:52:15",-7.360144763695641,"107.68515240379239"
504,MWC NU KECAMATAN TALEGONG,"KP. SAWAH TENGAH
","085222349906",mwcnutalegong@gmail.com,"",3205020,89,23,23,"2021-09-13 09:47:21","2021-09-19 04:41:56",-7.2951283000001474,"107.50234852888752"
505,MWC NU KECAMATAN CARINGIN,Kp. Muara Ciawi  1/1 Samudrajaya Caringin,"082320803667","0","0",3205011,89,23,23,"2021-09-13 09:48:15","2021-09-20 05:31:24",-6.728700115209309,"106.85064700776573"
506,MWC NU KECAMATAN PAKENJENG,Kp. Nagrak Ds. Pasirlangu Kec. Pakenjeng,"085220535942",mwcnupakenjeng@gmail.com,"0",3205050,89,23,23,"2021-09-13 09:49:07","2021-09-20 04:04:46",-7.454586334135817,"107.64344870232664"
507,MWC NU KECAMATAN CIKELET,Kp.Pamalayan 04/02 DESA PAMALAYAN KECAMATAN CIKELET,"085231609955",mwcnucikelet@gmail.com,-,3205060,89,23,23,"2021-09-13 09:49:42","2021-09-20 02:47:15",-7.619720321190551,"107.67903270331414"
508,MWC NU KECAMATAN PAMEUNGPEUK,Kp. Medong RT/RW 02/02 Ds. Pameungpeuk Kec. Pameungpeuk Kab. Garut,"081323797294",mwcnupameungpeuk@gmail.com,-,3205070,89,23,23,"2021-09-13 09:50:13","2021-09-19 06:59:44",-7.632566954061271,"107.72494556893405"
509,MWC NU KECAMATAN CIBALONG,"kp. Bendapari RT/RW 3/1 Ds. Najaten Kec. Cibalong
","085221740819",-,-,3205080,89,23,23,"2021-09-13 09:50:50","2021-09-20 15:28:17",-7.681240810604396,"107.91990852374852"
510,MWC NU KECAMATAN CISOMPET,Kp. Datarkendal RT/001 RW/002 Ds. Cisompet Kec.Cisompet,"082244946589",mwccisompet@gmail.com,-,3205090,89,23,23,"2021-09-13 09:51:18","2021-09-20 04:08:07",-7.548590832585527,"107.81399820455742"
511,MWC NU KECAMATAN PEUNDEUY,KP BOJONGRANDU 01/02 Toblong Kec. Peundeuy,"085320647777",-,-,3205100,89,23,23,"2021-09-13 09:51:41","2021-09-20 03:08:11",-7.563106863041342,"107.92067021059921"
512,MWC NU KECAMATAN BANJARWANGI,Kp.Cigerek 3/2 Banjarwangi kecamatan Banjarwangi,"081460916775",-,-,3205130,89,23,23,"2021-09-13 09:52:11","2021-09-20 16:11:17",-7.387714730135403,"107.88115985744652"
513,MWC NU KECAMATAN CIGEDUG,kp barukai rt 001 rw 004 desa cigedug kec cigedug garut,"083126583702",mwcnucigeduggarut@gmail.com,"",3205151,89,23,23,"2021-09-13 09:52:30","2021-09-20 04:00:51",-7.342308394675417,"107.80735546978151"
514,MWC NU KECAMATAN BAYONGBONG,Bayongbong Garut,"085294696842",mwcnubayongbong1926@gmail.com,-,3205150,89,23,23,"2021-09-13 09:52:58","2021-09-19 05:23:12",-7.280265725275048,"107.82362970140161"
515,MWC NU KECAMATAN SUKARESMI,"Jl. PP. Fauzan, Ds. Sukaresmi, Kec. Sukaresmi, Kab. Garut
","082315586599",mwcnusukaresmi26@gmail.com,-,3205161,89,23,23,"2021-09-13 09:53:46","2021-09-19 04:54:26",-7.248746180064938,"107.7841413710992"
516,MWC NU KECAMATAN PASIRWANGI,Kp. Nagrog 001/004 Sarimukti Kec. Pasirwangi,"082321573004",-,-,3205171,89,23,23,"2021-09-13 09:54:10","2021-09-20 15:14:59",-7.231176042244485,"107.77164696792667"
518,MWC NU KECAMATAN BANYURESMI,Kp. Maleer 01/14,"081224133085",mwcnubanyuresmi1926@gmail.com,-,3205230,89,23,23,"2021-09-13 09:55:05","2021-09-19 04:23:53",-7.16446604486175,"107.918162915143"
519,MWC NU KECAMATAN TAROGONG KIDUL,"Jl Merdeka No 36 Rt/Rw 002/006 Desa Jayaraga Kecamatan Tarogong Kidul Kabupaten Garut
","32050501454206",zalilhajiundanga2mail.com,-,3205181,89,23,23,"2021-09-13 09:55:40","2021-09-20 15:30:30",-7.191634395046719,"107.9037223832715"
520,MWC NU KECAMATAN TAROGONG KALER,Perum Jati Indah blok A no 4 ,"082121952089",ahmadkunaepi3@gmail.com,-,3205182,89,23,23,"2021-09-13 09:56:11","2021-09-20 09:52:00",-7.187960824017125,"107.89194725871938"
521,MWC NU KECAMATAN CIBIUK,"Jalan Raya No.103, Cibiuk Kidul, Cibiuk, Kabupaten Garut, Jawa Barat 44193","0895359408835",Mwcnucibiuk123ok@gmail.com,-,3205270,89,23,23,"2021-09-13 09:57:20","2021-09-19 06:55:23",-7.0745673284201045,"107.95940975580793"
522,MWC NU KECAMATAN LIMBANGAN,"jln raya limbangan rt 02 rw09
","085223678774",bllimbanganmwcnu@gmail.com,-,3205290,89,23,23,"2021-09-13 09:57:49","2021-09-19 04:57:26",-6.989363401761483,"107.93126356105981"
523,MWC NU KECAMATAN KERSAMANAH,Kp. Panamur RT/RW 01/08 Ds. Kersamanah Kec. Kersamanah Kab. Garut,"081280835927",mwcnukersamanah@gmail.com,-,3205261,89,23,23,"2021-09-13 09:58:26","2021-09-20 15:53:46",-7.0505096925907145,"108.03563354753099"
524,MWC NU KECAMATAN CIBATU,Jl. Taman Pahlawan No.141 Rt/Rw  002/002 Kp.  Citambal Desa Padasuka Kecamatan  Cibatu Kabupaten  Garut Provinsi  Jawa Barat,"082315244997",mwcnucibatu@gmail.com,-,3205260,89,23,23,"2021-09-13 09:58:53","2021-09-19 13:19:54",-,-
525,MWC NU KECAMATAN SUKAWENING,Kp. Ciluar 2/1 Desa Pasanggrahan Sukawening,"081224810069",-,-,3205220,89,23,23,"2021-09-13 09:59:25","2021-09-20 16:00:02",-7.158706290581682,"108.00642081466724"
526,MWC NU KECAMATAN KARANGTENGAH,Kp. Cinta RT/RW 03/01 Ds. Cintamanik Kec. Karangtengah kab. Garut,"082330044507",mwcnukarangtengah@gmail.com,-,3205221,89,23,23,"2021-09-13 09:59:55","2021-09-20 04:06:18",-7.165377792586188,"108.06216055311178"
527,MWC NU KECAMATAN PANGATIKAN,"Kp. Cihuni Rt01/Rw12Desa Cihuni  Kecamatan Pangatikan Kabupaten Garut
","082128998132",yahidayat2020@gmail.com,-,3205212,89,23,23,"2021-09-13 10:00:40","2021-09-20 08:09:03",-7.1816900002065465,"108.0320892145299"
528,MWC NU KECAMATAN WANARAJA,"Kp.Papandak Rt 04/07 Desa.Sukamenak Kecamatan Wanaraja Kabupaten Garut Provinsi Jawa Barat
","085320318108",-,-,3205210,89,23,23,"2021-09-13 10:01:21","2021-09-20 15:29:29",-7.187942716065301,"108.02211821025382"
529,MWC NU KECAMATAN KARANGPAWITAN,Jl. Karangpawitan Desa Sindanggalih Kec. Karangpawitan Kab. Garut 44182,"089663861247",mwcnu.karangpawitan@gmail.com,www.mwcnukarangpawitan.com,3205200,89,23,23,"2021-09-13 10:01:58","2022-09-08 17:55:09","7.2064756","107.9473486"
530,MWC NU KECAMATAN GARUT KOTA,"Kp. Ciwalen Rt.02/Rw.09 Keluarahan Ciwalen Kecamatan Garut Kota Kaupate Garut
","085941398684","",-,3205190,89,23,23,"2021-09-13 10:05:36","2021-09-16 15:41:25",-,-
531,MWC NU KECAMATAN CILAWU,"Jl. Garut - Tasikmalaya No.KM. 8, Cilawu, Kec. Cilawu, Kabupaten Garut, Jawa Barat 44181","081223032156",-,-,3205140,89,23,23,"2021-09-13 10:06:20","2021-09-20 15:33:24",-7.268039101145977,"107.91403081025442"
532,MWC NU KECAMATAN CIHURIP,"KP. PASIR EURIH 002/006
","085315560671",cihuripmwcnu@gmail.com,-,3205111,89,23,23,"2021-09-13 10:06:42","2021-09-19 07:06:08",-7.498361618093424,"107.83325565944246"
533,MWC NU KECAMATAN CIKAJANG,Kp. Dano Ds. Cibodas Kec. Cikajang Kab. Garut,"082316126286",mwcnucikajang20@gmail.com,-,3205120,89,23,23,"2021-09-13 10:07:07","2021-09-20 04:03:05",-7.3754628570876894,"107.80141163136318"
534,MWC Ligung,"Jl Desa Leuwiliang, Leuwiliang Baru 
   Rt. 03 RW.01 Blok Leuwimalis 
   Kec. Ligung Kab. Majalengka
","085294451899",mwcnuligung@gmail.com,mwcnuligungfamilyofficial.family.blog,3210200,68,11,11,"2021-09-15 16:11:53","2021-09-15 17:02:31",-6.694731255993247,"108.28362040221691"
535,MWC Maja, Jl. Pasukan Sindangkasih blok Sindangsari RT/RW 07/04 Desa Sindangsari Kecamatan maja,"082315918142",mwcnumaja85@gmail.com,"",3210060,68,11,,"2021-09-15 17:05:41","2021-09-15 17:05:41","6Â°52'27.7""S","108Â°17'25.1""E"
536,SUBANG,Jln. D Kertawigenda Gg Tengah No. 11 RT.14/04 Kelurahan Karanganyar Kecamatan Subang,"085294133006","","",3213070,88,17,17,"2021-09-16 17:43:49","2021-09-16 17:47:56",-6.5651237,"107.7570713"
537,LEGONKULON,Masjid Jamie Nurul Iman Dusun Krajan RT. 07/03 Desa Bobos Kecamatan Legonkulon Kabupaten Subang 41254,"081388529331","","",3213210,88,17,,"2021-09-16 18:09:31","2021-09-16 18:09:31",-6.250575,"107.8107285"
538, TAMBAKDAHAN, Gang Al-Hidayah Ds Kertajaya Rt.06/02 Kec. Tambakdahan -Subang Kp.41267,"085224243344","","",3213171,88,17,,"2021-09-16 18:13:15","2021-09-16 18:13:15",-6.3182365,"107.8219097"
539,PAGADEN BARAT,"Kp. Cikondang RT/RW 11/08, Desa Mekarwangi, Kecamatan Pagaden Barat, Subang","085222060243","","",,88,17,,"2021-09-16 18:17:23","2021-09-16 18:17:23",-6.4512689,"107.7661577"
540, PUSAKAJAYA,"Jln. By Pass Kebondanas (Sebelah Timur Kantor Camat Pusakajaya), Desa Kebondanas, Pusakajaya, Subang ","","","",3213201,88,17,,"2021-09-16 18:19:01","2021-09-16 18:19:01",-6.2921771,"107.8952067"
541,PABUARAN,Jl. Kaum RT 09 Rw 03 Desa/Kec. Pabuaran Kab. Subang,"","","",3213100,88,17,,"2021-09-16 18:20:30","2021-09-16 18:20:30","",""
542,PURWADADI,"Ponpes Miftahul Fata, Dusun Boles, Desa Panyingkiran, Kec. Purwadadi, Subang","","","",,88,17,,"2021-09-16 18:20:57","2021-09-16 18:20:57","",""
543,KALIJATI,"Masjid Baitul Makmur, Samping Pasar Kalijati, Subang","","","",3213080,88,17,,"2021-09-16 18:21:20","2021-09-16 18:21:20","",""
544,CIKAUM,"Komplek Al-Wustha Pesantren Assalafiyah, Dusun Tanjungpura, RT/RW 02/01, Desa Tanjungsari, Kec. Cikaum, Subang","","","",3213130,88,17,,"2021-09-16 18:21:53","2021-09-16 18:21:53","",""
545,CIPUNAGARA,"Pesantren Ulumul Qur`an, Dusun Kunir, Desa Simpar, Kec Cipunagara, Subang","","","",3213150,88,17,,"2021-09-16 18:22:11","2021-09-16 18:22:11","",""
546,CISALAK," Pesantren Al-Istiqomah RT/RW 02/02, Desa/Kecamatan Cisalak, Subang 41283","","","",3213030,88,17,,"2021-09-16 18:22:33","2021-09-16 18:22:33","",""
547,CIBOGO,"Kp. Rancaseel. RT 05/02, Majasari, Kec. Cibogo, Kabupaten Subang, Jawa Barat 41285","","","",3213060,88,17,,"2021-09-16 18:23:23","2021-09-16 18:23:23","",""
548,CIPEUNDEUY,"Sawangan, Cipeundeuy, Sawangan, Subang","","","",3213090,88,17,,"2021-09-16 18:27:02","2021-09-16 18:27:02","",""
549,BINONG,"Jl. Raya Binong No.64, Binong, Kabupaten Subang, Jawa Barat 41253","","","",3213170,88,17,,"2021-09-16 18:27:36","2021-09-16 18:27:36","",""
550,PATOKBEUSI,"Masjid Jamie Az-Zahra, Pangkalan, Rancabango, Kec. Patokbeusi, Kabupaten Subang, Jawa Barat 41263","","","",3213110,88,17,,"2021-09-16 18:29:36","2021-09-16 18:29:36","",""
551,SUKASARI,"Jl. Raya Ciasem Subang, Sukamaju, Kec. Sukasari, Kabupaten Subang","","","",3213191,88,17,,"2021-09-16 18:30:50","2021-09-16 18:30:50","",""
552,BLANAKAN,"Kampung Tegal Tangkil Desa Jayamukti Kecamatan Blanakan, Kabupaten Subang","","","",,88,17,,"2021-09-16 18:33:17","2021-09-16 18:33:17","",""
553,COMPRENG,"Jl. Raya Jatireja, Jatireja, Compreng, Kabupaten Subang","","","",,88,17,,"2021-09-16 18:33:52","2021-09-16 18:33:52","",""
554,PAGADEN,Jl. Raya Kamarung Pagaden Subang,"","","",,88,17,,"2021-09-16 18:35:31","2021-09-16 18:35:31","",""
555,CIJAMBE,"Jalan Desa Tanjungwangi, Cijambe Subang","","","",,88,17,,"2021-09-16 18:37:00","2021-09-16 18:37:00","",""
556,KASOMALANG,"Kp. Cadasngampaar RT/RW 16/04, Desa, Kasomalang Wetan, Kasomalang","","","",,88,17,,"2021-09-16 18:37:59","2021-09-16 18:37:59","",""
557,TANJUNGSIANG,"Jl. Raya Tanjungsiang No.17, Sindanglaya, Tanjungsiang, Kabupaten Subang","","","",,88,17,,"2021-09-16 18:39:45","2021-09-16 18:39:45","",""
558,JALANCAGAK,"Dusun simpang, RT 009 RW 004, Desa Tambakmekar, Jalancagak","","","",,88,17,,"2021-09-16 18:41:25","2021-09-16 18:41:25","",""
559,SAGALAHERANG,"Jln Alun-Alun, Blok Kaum RT/RW 08/07, Sagalaherang, Kabupaten Subang","","","",,88,17,,"2021-09-16 18:43:08","2021-09-16 18:43:08","",""
560,PUSAKANAGARA,"Majelis Ta'lim Nida Al-Quran, Desa Kalentambo Rt. 01 Rw. 01, Kec. Pusakanagara Kab. Subang 41255","","","",,88,17,,"2021-09-16 18:45:46","2021-09-16 18:45:46","",""
561,CIASEM,"Dusun Dukuh Barat, Desa Dukuh, Kec. Ciasem","","","",,88,17,,"2021-09-16 18:54:17","2021-09-16 18:54:17","",""
563,CIATER,"Kp. Nagrog Desa, Palasari, Ciater, Subang","","","",,88,17,,"2021-09-17 07:25:50","2021-09-17 07:25:50","",""
564,SERANGPANJANG,"Jalan Desa Sukamandi, Sagalaherang, Kabupaten Subang","","","",,88,17,,"2021-09-17 07:26:54","2021-09-17 07:26:54","",""
565,MWC NU KECAMATAN SAMARANG,Kp. Samarang Boboko RT.03/01 Ds./Kec. Samarang Kab. Garut Jawa Barat,"08975448251",-,-,3205170,89,23,23,"2021-09-20 12:32:21","2021-09-20 15:08:31",-7.207394598247461,"107.83033478692407"
566,MWCNU Kec. Jatiluhur,Jatiluhur,"08172334270","","",3214010,72,16,16,"2021-09-20 13:43:19","2021-09-20 16:01:41","",""
567,MWCNU Kec. Purwakarta,Purwakarta,"087735345559","","",3214100,72,16,16,"2021-09-20 13:44:35","2021-09-20 15:56:15","",""
568,MWCNU Kec. Babakancikao,Babakancikao,"087879825690","","",3214101,72,16,16,"2021-09-20 13:45:31","2021-09-20 16:06:21","",""
569,MWCNU Kec. Cibatu,Cibatu,"081909500877","","",3214111,72,16,16,"2021-09-20 13:46:14","2021-09-20 16:02:55","",""
570,MWCNU Kec. Campaka,Campaka,"087879706304","","",3214110,72,16,16,"2021-09-20 13:46:57","2021-09-20 16:03:33","",""
571,MWCNU Kec. Bungursari,Bungursari,"085717071375","","",3214112,72,16,16,"2021-09-20 13:47:41","2021-09-20 16:04:09","",""
572,MWCNU Kec. Pasawahan,Pasawahan,"087778681413","","",3214090,72,16,16,"2021-09-20 13:48:30","2021-09-20 15:58:33","",""
573,MWCNU Kec. Pondoksalam,Pondoksalam,"082125268950","","",3214091,72,16,16,"2021-09-20 13:49:15","2021-09-20 15:56:56","",""
574,MWCNU Kec. Kiarapedes,Kiarapedes,"083156714168","","",3214081,72,16,16,"2021-09-20 13:49:42","2021-09-20 16:00:54","",""
575,MWCNU Kec. Wanayasa,Wanayasa,"085759232776","","",3214080,72,16,16,"2021-09-20 13:50:04","2021-09-20 14:43:00","",""
576,MWCNU Kec. Bojong,Bojong,"087779527557","","",3214070,72,16,16,"2021-09-20 13:51:14","2021-09-20 16:05:07","",""
577,MWCNU Kec. Darangdan,Darangdan,"081802136870","","",3214060,72,16,16,"2021-09-20 13:51:44","2021-09-20 16:02:14","",""
579,MWCNU Kec. Plered,Plered,"0817612165","","",3214040,72,16,16,"2021-09-20 13:52:29","2021-09-20 15:57:59","",""
580,MWCNU Kec. Maniis,Maniis,"085302640061","","",3214020,72,16,16,"2021-09-20 13:53:12","2021-09-20 15:59:42","",""
581,MWCNU Kec. Tegalwaru,Tegalwaru,"08172352780","","",3214030,72,16,16,"2021-09-20 13:53:38","2021-09-20 15:53:29","",""
582,MWCNU Kec. Sukatani,Sukatani,"087879634840","","",3214050,72,16,16,"2021-09-20 13:54:18","2021-09-20 15:54:21","",""
583,MWCNU Kec. Sukasari,Sukasari,"081912532714","","",3214011,72,16,16,"2021-09-20 13:54:46","2021-09-20 15:55:14","",""
584,MWCNU INDRAMAYU,Jl. Ir. H. Juanda Blok Kepolo ,"087717976667","","",3212150,97,12,12,"2021-10-10 10:29:57","2021-10-16 11:11:09",-6.348898,"108.328736"
585,MWCNU HAURGEULIS,Jl. Raya Haurgeulis Blok Manggungan,"08129349138","","",3212010,97,12,12,"2021-10-13 06:36:23","2021-10-13 07:00:45",-6.461247,"107.943240"
586,MWCNU SUKAGUMIWANG,Jl. Raya Sukagumiwang Blok Wangut,"081223069973","","",3212081,97,12,,"2021-10-13 07:07:08","2021-10-13 07:07:08",-6.565015719800001, 108.320066212501
587,MWCNU BONGAS,Jl. Raya Bongas ,"085795210464","","",3212200,97,12,12,"2021-10-16 11:02:35","2021-10-16 11:04:58","",""
588,MWCNU BANGODUA,Jl. Raya Bangodua,"083113607433","","",3212060,97,12,,"2021-10-16 11:07:39","2021-10-16 11:07:39","",""
589,MWCNU ANJATAN,Jl. Raya Anjatan- Haurgeulis,"085220640707","","",3212210,97,12,,"2021-10-16 11:17:50","2021-10-16 11:17:50","",""
590,MWCNU KARANGAMPEL,Jl. Raya Karangampel,"085324136666","","",3212100,97,12,,"2021-10-16 11:24:37","2021-10-16 11:24:37","",""
591,MWCNU SLIYEG,"Jl. Jatibarang - Balongan, Sliyeg, Kabupaten Indramayu, Jawa Barat 45281","081222015664","","",3212120,97,12,,"2021-10-17 00:53:45","2021-10-17 00:53:45",-6.454427714605122,"108.35072965929551"
592,MWCNU SUKRA,Jl. Raya Pantura Sukra ,"082129240202","","",3212220,97,12,,"2021-10-18 03:27:51","2021-10-18 03:27:51",-6.310711834384961,"107.97447621793266"
593,MWCNU CIKEDUNG,Jl. Raya Cikedung Amis,"083148795996","","",3212040,97,12,,"2021-10-18 03:37:53","2021-10-18 03:37:53",-6.516668383694784,"108.16521920355551"
594,MWCNU PASEKAN,Jl. Patimura Karanganyar,"087829609383","","",3212162,97,12,,"2021-10-18 03:45:53","2021-10-18 03:45:53",-6.283018795466297,"108.31098894704336"
595,MWCNU ARAHAN,Jl. Raya Cidempet,"081947012130","","",3212171,97,12,,"2021-10-19 02:32:50","2021-10-19 02:32:50",-6.354361742453232,"108.2468117507885"
596,MWCNU CANTIGI,Jl. Raya Cantigi Kulon,"081324367900","","",3212161,97,12,,"2021-10-19 02:39:52","2021-10-19 02:39:52",-6.334528325099383,"108.22580469199038"
597,MWCNU GABUS WETAN,Jl. Raya Gabus Wetan,"085776648562","","",3212030,97,12,,"2021-10-19 02:46:06","2021-10-19 02:46:06",-6.439766308858421,"108.07932477360025"
598,MWCNU GANTAR,Jl. Siliwangi,"081313046123","","",3212011,97,12,,"2021-10-19 02:51:33","2021-10-19 02:51:33",-6.52480239199631,"107.9819356517913"
599,MWCNU JATIBARANG,Jl. Raya Blok Semirang,"081320229235","","",3212130,97,12,,"2021-10-19 02:57:12","2021-10-19 02:57:12",-6.402290790775234,"108.32127290946121"
600,MWCNU JUNTINYUAT,Jl. Raya Jatibarang-Karangampel,"083827805622","","",3212110,97,12,,"2021-10-19 03:02:10","2021-10-19 03:02:10",-6.474378672441993,"108.40454013829667"
601,MWCNU KANDANGHAUR,Jl. Raya Pantura Kandanghaur,"081395878257","","",3212190,97,12,,"2021-10-19 03:19:35","2021-10-19 03:19:35",-6.332468652789474,"108.08877347606774"
602,MWCNU KEDOKAN BUNDER,Jl. Raya Kedokan,"089630082487","","",3212101,97,12,,"2021-10-19 03:25:54","2021-10-19 03:25:54",-6.503108339781432,"108.42222790168272"
603,MWCNU KERTASEMAYA,Jl. Raya Jatibarang - Kertasemaya,"081324174665","","",3212080,97,12,,"2021-10-19 03:31:59","2021-10-19 03:31:59",-6.5373398333493835,"108.35215885670974"
604,MWCNU KRANGKENG,Jl. Raya Cirebon - Indramayu,"083866259616","","",3212090,97,12,,"2021-10-19 03:37:20","2021-10-19 03:37:20",-6.526091013910362,"108.49264598431976"
605,MWCNU KROYA,Jl. Raya Kroya,"082321107833","","",3212020,97,12,,"2021-10-19 03:43:12","2021-10-19 03:43:12",-6.493351989973162,"108.06288533549557"
606,MWCNU LELEA,Jl. Raya Tugu - Bangodua,"085318814666","","",3212050,97,12,,"2021-10-19 03:50:50","2021-10-19 03:50:50",-6.511819060194357,"108.22183971560519"
607,MWCNU LOHBENER,Jl. Raya Pantura Lohbener,"082321252441","","",3212170,97,12,,"2021-10-19 03:56:04","2021-10-19 03:56:04",-6.405228347255435,"108.22296229376005"
608,MWCNU LOSARANG,Jl. Raya Pantura - Losarang,"085224707227","","",3212180,97,12,,"2021-10-19 04:00:27","2021-10-19 04:00:27",-6.380465882524121,"108.13264462480217"
609,MWCNU TERISI,Jl. Kendayakan,"087779837108","","",3212041,97,12,,"2021-10-19 04:08:00","2021-10-19 04:08:00",-6.450114128944927,"108.14559121870302"
610,MWCNU TUKDANA,Jl. Raya Cangko,"087828828296","","",3212061,97,12,,"2021-10-19 04:16:05","2021-10-19 04:16:05",-6.5663143497586685,"108.30586311345603"
611,MWCNU WIDASARI,Jl. Jatibarang - Lelea,"081224444758","","",3212070,97,12,,"2021-10-19 04:21:27","2021-10-19 04:21:27",-6.476847313992531,"108.27314310279192"
612,MWCNU PATROL,Jl. Raya Patrol,"08121438886","","",3212221,97,12,,"2021-10-20 06:55:37","2021-10-20 06:55:37",-6.315556750480692,"108.00950394779152"
613,MWCNU BALONGAN,Jl. Raya Balongan - Rawadalem,"081313269999","","",3212140,97,12,,"2021-10-22 03:15:40","2021-10-22 03:15:40",-6.373609828206408,"108.36438502677967"
614,MWCNU SINDANG,"Majelis Taâlim Nurul Burhani Gang. 11 Desa Penganjang, Kecamatan Sindang kabupaten Indramayu","0895331919623","","",3212160,97,12,,"2021-12-01 05:42:36","2021-12-01 05:42:36",-6.317077830076219,"108.31771779966421"
615,MWCNU LANGKAPLANCAR,DESA PANGKALAN KECAMATAN LANGKAPLANCAR,"085212396181","","",3218040,76,28,28,"2023-03-17 18:38:01","2023-03-17 18:41:04","",""
616,MWCNU PANGANDARAN,DUSUN BOJONGJATI DESA PANANJUNG PANGANDARAN,"082117626667","","",3218070,76,28,28,"2023-03-17 18:43:25","2023-03-17 19:15:09","",""
617,MWCNU KARANGKAMIRI,CISARUA LANGKAPLANCAR,"081312606789","","",3218040,76,28,,"2023-03-17 18:46:36","2023-03-17 18:46:36","",""
618,MWCNU KALIPUCANG,DESA KALIPUCANG KECAMATAN KALIPUCANG,"081320692997","","",3218080,76,28,,"2023-03-17 18:49:48","2023-03-17 18:49:48","",""
619,MWCNU CIJULANG,CIJULANG,"","","",3218020,76,28,,"2023-03-17 19:58:50","2023-03-17 19:58:50","",""
620,MWCNU MANGUNJAYA,"","","","",3218100,76,28,,"2023-03-17 20:17:04","2023-03-17 20:17:04","",""
621,MWCNU PADAHERANG,"","","","",3218090,76,28,,"2023-03-17 20:28:27","2023-03-17 20:28:27","",""
622,MWCNU CIMERAK,"","","","",3218010,76,28,,"2023-03-17 20:40:50","2023-03-17 20:40:50","",""
623,MWCNU PARIGI,"","","","",3218050,76,28,,"2023-03-17 20:44:29","2023-03-17 20:44:29","",""
624,MWCNU SIDAMULIH,"","","","",3218060,76,28,,"2023-03-17 20:46:18","2023-03-17 20:46:18","",""
